store_id,clinic_id,address,state,zip,latitude,longitude,COUNTY
10826,2278,1440 BROADWAY,NY,10018,40.7544,-73.9865,36061
2427,911,215 PARK AVENUE SOUTH,NY,10003,40.7369,-73.9885,36061
8968,2242,222 EAST 34TH STREET,NY,10016,40.7448,-73.9765,36061
11059,2491,"1619 BROADWAY, CORNER of WEST 49th STREET",NY,10019,40.761,-73.9845,36061
10298,1821,241 WEST 57TH ST,NY,10019,40.7668,-73.9823,36061
10407,2243,298 MULBERRY ST,NY,10012,40.7251,-73.9947,36061
1928,413,"59 WASHINGTON ST, COURT STREET PLAZA",NJ,07030,40.7366,-74.0309,34017
2498,492,341 9TH STREET,NY,11215,40.6688,-73.9849,36047
3224,2238,130 LENOX AVE.,NY,10026,40.8021,-73.9492,36061
7576,2076,3101 DITMARS BLVD.,NY,11105,40.7761,-73.9104,36081
491,2239,7209 NORTHERN BOULEVARD,NY,11372,40.755,-73.8945,36081
7066,488,565 W 235TH ST,NY,10463,40.8858,-73.9103,36005
7066,488,565 W 235TH ST,NY,10463,40.8858,-73.9103,36061
2950,143,880 RIVER RD,NJ,07646,40.9263,-74.0272,34003
6049,262,1361 HYLAN BLVD,NY,10305,40.5954,-74.0865,36085
6058,14144,260 ARDEN AVE.,NY,10312,40.5538,-74.1929,36085
2700,2241,1402 SHEEPSHEAD BAY ROAD,NY,11235,40.5872,-73.9549,36047
385,14203,220 SCHUYLER AVE,NJ,07032,40.7561,-74.1441,34003
385,14203,220 SCHUYLER AVE,NJ,07032,40.7561,-74.1441,34017
2796,14398,241 WESTFIELD AVE.,NJ,07066,40.6219,-74.3047,34039
2796,14398,241 WESTFIELD AVE.,NJ,07066,40.6219,-74.3047,34023
5771,149,178 MORRIS AVE,NJ,07081,40.7105,-74.3081,34039
7069,1732,3391 HIGHWAY 35,NJ,07730,40.4238,-74.1938,34025
2139,135,2982 COUNTRY RD 516,NJ,08857,40.4025,-74.3131,34023
2815,664,330 RUES LN,NJ,08816,40.4178,-74.4115,34023
2210,165,1239 E PUTNAM AVE,CT,06878,41.0426,-73.5775,9190
1770,225,325 MAMARONECK AVE,NY,10605,41.0253,-73.7631,36119
1949,218,1310 BOSTON POST RD,NY,10538,40.9369,-73.7475,36119
1958,203,55 COLD SPRING RD,NY,11791,40.8268,-73.5006,36059
2432,221,375 WHITE PLAINS RD,NY,10709,40.9541,-73.8142,36119
531,939,325 ROUTES 100,NY,10589,41.326,-73.6884,36119
5300,1428,1000 BERGEN TOWN CTR,NJ,07652,40.9169,-74.0625,34003
549,2237,61-15 METROPOLITAN AVE.,NY,11385,40.713,-73.9011,36081
716,317,269 LIVINGSTON ST STE A,NJ,07647,41.0144,-73.9467,34003
10618,14149,5326 West 11000 North,UT,84003,40.4323,-111.7855,49049
10187,2100,11385 SOUTH 700 EAST,UT,84070,40.5448,-111.8711,49035
10210,14187,330 ROUTE 304,NY,10954,41.1097,-73.9956,36087
1109,988,7 DURANT AVE,CT,06801,41.3731,-73.4141,9190
822,1034,40 EAST ST,CT,06776,41.5794,-73.4077,9190
822,1034,40 EAST ST,CT,06776,41.5794,-73.4077,9160
1123,162,22 DEPOT HILL RD,CT,06488,41.4753,-73.2178,9140
2572,1378,1 HAWLEY LN,CT,06614,41.2306,-73.1532,9120
2572,1378,1 HAWLEY LN,CT,06614,41.2306,-73.1532,9140
381,144,303 FRANKLIN AVE,NJ,07481,41.0118,-74.1658,34003
212,1038,681 RESERVOIR AVE,RI,02910,41.781,-71.4431,44007
729,848,799 HOPE ST,RI,02906,41.849,-71.3946,44007
6466,1756,2340 GAR HWY,MA,02777,41.7686,-71.2648,25005
394,1720,"1479 NEWMAN AVE, RoJacks Plaza",MA,02771,41.8883,-71.3321,25005
5107,1765,1285 S COUNTY TRL,RI,02818,41.6614,-71.4983,44003
938,1465,8 E WASHINGTON ST,MA,02760,41.9673,-71.3384,25021
938,1465,8 E WASHINGTON ST,MA,02760,41.9673,-71.3384,25005
715,142,2440 HAMBURG TPKE,NJ,07470,40.9908,-74.2791,34031
251,2302,24-12 FAIR LAWN AVENUE,NJ,07410,40.9393,-74.1186,34003
2577,670,156 NEWARK POMPTON TPKE,NJ,07440,40.9479,-74.288,34027
2968,672,11 THEATRE CTR,NJ,07871,41.0316,-74.6358,34037
2416,151,276 E. MAIN ST,NJ,07834,40.8838,-74.4792,34027
326,1281,120 EDDIE DOWLING HWY,RI,02896,41.9801,-71.5122,44007
1780,669,1103 ROUTE 46,NJ,07852,40.88,-74.6436,34027
3651,14229,372 JERICHO TURNPIKE,NY,11001,40.7299,-73.6957,36081
3651,14229,372 JERICHO TURNPIKE,NY,11001,40.7299,-73.6957,36059
2061,14140,1797 DUTCH BROADWAY,NY,11003,40.6896,-73.7095,36059
6030,495,157-05 CROSS BAY BLVD.,NY,11414,40.6624,-73.8401,36047
6030,495,157-05 CROSS BAY BLVD.,NY,11414,40.6624,-73.8401,36081
949,202,2291 MERRICK RD.,NY,11566,40.6608,-73.5411,36059
848,211,107 S COUNTRY RD,NY,11713,40.7573,-72.9406,36103
1966,1279,1057 BOSTON POST RD,CT,06437,41.2883,-72.6847,9170
718,535,24 PERSHING DR #36,CT,06401,41.3338,-73.0834,9140
718,535,24 PERSHING DR #36,CT,06401,41.3338,-73.0834,9170
775,536,2045 DIXWELL AVE,CT,06514,41.3673,-72.9192,9170
692,1887,162 WASHINGTON AVENUE,CT,06473,41.3978,-72.8525,9170
123,14200,519 BOSTON POST RD.,CT,06475,41.2997,-72.3763,9130
377,1865,915 POQUONNOCK RD,CT,06340,41.346,-72.0514,9180
1544,1766,151 FRANKLIN ST,RI,02891,41.3571,-71.8086,44009
1027,1880,372 W MAIN ST,CT,06360,41.5209,-72.0916,9180
2065,851,11 MAIN ST,RI,02879,41.4419,-71.4894,44009
4149,1790,54 E HIGH ST,CT,06424,41.5842,-72.4971,9130
957,1757,928 RIVERDALE ST,MA,01089,42.1292,-72.6273,25013
1180,157,358 W MAIN ST,CT,06001,41.816,-72.8608,9110
1095,1727,165 UNIVERSITY DR,MA,01002,42.3686,-72.5339,25015
1095,1727,165 UNIVERSITY DR,MA,01002,42.3686,-72.5339,25011
1094,1726,137 FEDERAL ST,MA,01301,42.5922,-72.5972,25011
750,382,875 ENFIELD ST,CT,06082,41.998,-72.5936,9110
288,1688,839 FARMINGTON AVE,CT,06010,41.6936,-72.9158,9160
288,1688,839 FARMINGTON AVE,CT,06010,41.6936,-72.9158,9140
288,1688,839 FARMINGTON AVE,CT,06010,41.6936,-72.9158,9110
1960,1820,1279 W MAIN ST,CT,06708,41.5514,-73.0639,9140
590,1764,1054 CASS AVE,RI,02895,42.0043,-71.4799,44007
6060,152,183 ROUTE 206 S,NJ,07930,40.7811,-74.6953,34027
10685,2115,655 K ST NW,DC,20001,38.9028,-77.0213,11001
1842,1104,1275 PENNSYLVANIA AVE NW,DC,20004,38.8957,-77.0292,11001
1347,392,6 DUPONT CIR NW,DC,20036,38.9094,-77.0444,11001
7074,195,2240 M ST NW,DC,20037,38.9049,-77.0495,11001
1340,197,845 BLADENSBURG RD N E,DC,20002,38.9013,-76.9821,11001
2378,196,2226 WISCONSIN AVE NW,DC,20007,38.9199,-77.0715,11001
4029,387,1181 FREEDOM RD,PA,16066,40.6826,-80.1244,42007
4029,387,1181 FREEDOM RD,PA,16066,40.6826,-80.1244,42019
258,1402,5703 STEUBENVILLE PIKE,PA,15136,40.4514,-80.1341,42003
10034,1769,611 DUNCAN AVE,PA,15237,40.5679,-80.0233,42003
4103,1405,355 LINCOLN AVENUE,PA,15202,40.4935,-80.0524,42003
7611,841,4849 WILLIAM FLYNN HWY,PA,15101,40.5995,-79.9478,42003
5094,839,328 COCHRAN RD,PA,15228,40.3826,-80.0519,42003
5101,840,3870 WASHINGTON RD,PA,15317,40.2731,-80.1284,42125
5101,840,3870 WASHINGTON RD,PA,15317,40.2731,-80.1284,42003
4369,838,4610 CENTRE AVE.,PA,15213,40.4517,-79.9516,42003
5890,1690,3893 WILLIAM PENN HWY,PA,15146,40.4378,-79.779,42003
5890,1690,3893 WILLIAM PENN HWY,PA,15146,40.4378,-79.779,42129
3302,1733,7230 MARKET ST,OH,44512,41.0252,-80.6635,39099
4077,1158,975 ROSTRAVER RD,PA,15012,40.1397,-79.8428,42003
4077,1158,975 ROSTRAVER RD,PA,15012,40.1397,-79.8428,42051
4077,1158,975 ROSTRAVER RD,PA,15012,40.1397,-79.8428,42125
4077,1158,975 ROSTRAVER RD,PA,15012,40.1397,-79.8428,42129
2867,1798,1937 MACDADE BLVD,PA,19033,39.8969,-75.3146,42045
2582,811,795 BALTIMORE PIKE,PA,19064,39.9166,-75.3326,42045
1296,2110,5001 TOWNSHIP LINE ROAD,PA,19026,39.9565,-75.3217,42045
1545,2044,1500 SPRUCE ST.,PA,19102,39.9471,-75.1667,42101
6902,819,1218 E LANCASTER AVE,PA,19010,40.0255,-75.327,42045
6902,819,1218 E LANCASTER AVE,PA,19010,40.0255,-75.327,42091
233,1881,3930 WEST CHESTER PIKE,PA,19073,39.985,-75.415,42045
233,1881,3930 WEST CHESTER PIKE,PA,19073,39.985,-75.415,42029
329,2120,111 AUBURN ST.,ME,04103,43.7036,-70.2885,23005
806,2121,51 MARKET ST.,ME,04106,43.6361,-70.255,23005
2518,798,2160 N HIGH ST,OH,43201,40.0063,-83.009,39049
6147,1846,1495 W 5TH AVE,OH,43212,39.9882,-83.0465,39049
6153,1605,2532 E MAIN ST,OH,43209,39.9574,-82.9315,39049
6149,99,1885 W HENDERSON RD,OH,43220,40.0544,-83.0697,39049
3410,94,60 N STYGLER RD,OH,43230,40.0198,-82.8898,39049
3407,799,918 N HIGH ST,OH,43085,40.0927,-83.0174,39049
4992,1996,2115 UNION AVENUE,TN,38104,35.1336,-89.9907,47157
10204,14201,4155 ELVIS PRESLEY BLVD.,TN,38116,35.0351,-90.0256,47157
6304,1992,6116 QUINCE RD,TN,38119,35.0865,-89.8594,47157
7144,1991,6670 STAGE RD,TN,38134,35.2054,-89.8414,47157
6628,1990,786 N GERMANTOWN PKWY,TN,38018,35.1464,-89.7947,47157
4000,1051,2501 WARREN RD,PA,15701,40.6097,-79.1894,42063
1435,1884,1503 POTOMAC AVE,MD,21742,39.662,-77.7005,24043
2257,1135,250 MAMMOTH RD,NH,03109,42.9809,-71.4319,33011
841,1794,4 HALL ST,NH,03301,43.1947,-71.5288,33013
1004,1131,512 S BROADWAY,NH,03079,42.7429,-71.2004,33015
1174,466,68 MAIN ST,MA,01810,42.6552,-71.1392,25017
1174,466,68 MAIN ST,MA,01810,42.6552,-71.1392,25009
73,1724,5 MACY ST,MA,01913,42.8473,-70.9291,25009
1121,465,174 LITTLETON RD,MA,01886,42.5669,-71.4214,25017
2543,2077,601 EAST MAIN ST,OH,44406,41.0242,-80.7413,39099
2486,1785,1331 YOUNGSTOWN WARREN RD,OH,44446,41.2056,-80.7396,39155
7952,415,630 S EXETER ST,MD,21202,39.284,-76.6006,24510
4438,14289,6635-37 BELAIR RD,MD,21206,39.3546,-76.5303,24510
4438,14289,6635-37 BELAIR RD,MD,21206,39.3546,-76.5303,24005
2216,111,1001 YORK RD,MD,21204,39.4104,-76.6086,24005
5706,393,7095 BALTIMORE ANNAPOLIS BLVD,MD,21061,39.1985,-76.6411,24003
16390,2229,5230 CAMPBELL BLVD,MD,21236,39.3713,-76.4515,24510
16390,2229,5230 CAMPBELL BLVD,MD,21236,39.3713,-76.4515,24005
16612,32,9901 YORK RD,MD,21030,39.4622,-76.6335,24005
8763,1255,1650 N FARWELL AVE,WI,53202,43.0525,-87.8922,55079
8770,1258,8661 N PORT WASHINGTON RD,WI,53217,43.1744,-87.9133,55089
8770,1258,8661 N PORT WASHINGTON RD,WI,53217,43.1744,-87.9133,55079
4996,1933,N83 W15550 APPLETON AVE,WI,53051,43.1698,-88.1033,55133
4996,1933,N83 W15550 APPLETON AVE,WI,53051,43.1698,-88.1033,55131
8947,1935,1130 W SUNSET DR,WI,53189,42.989,-88.2549,55133
2933,1948,3710 57TH AVE,WI,53144,42.604,-87.8775,55101
2933,1948,3710 57TH AVE,WI,53144,42.604,-87.8775,55059
1172,1949,2020 E GRAND AVE,IL,60046,42.4105,-88.033,17097
3317,228,296 CENTER ST,OH,44024,41.5839,-81.2119,39055
3317,228,296 CENTER ST,OH,44024,41.5839,-81.2119,39085
4327,1689,1506 MENTOR AVE,OH,44077,41.7008,-81.277,39055
4327,1689,1506 MENTOR AVE,OH,44077,41.7008,-81.277,39085
3393,797,118 W GARFIELD RD,OH,44202,41.318,-81.3495,39055
3393,797,118 W GARFIELD RD,OH,44202,41.318,-81.3495,39133
3393,797,118 W GARFIELD RD,OH,44202,41.318,-81.3495,39153
3980,1716,500 S WATER ST,OH,44240,41.1497,-81.3587,39153
3980,1716,500 S WATER ST,OH,44240,41.1497,-81.3587,39133
4804,233,16801 CHILLICOTHE RD,OH,44023,41.4122,-81.3375,39055
4804,233,16801 CHILLICOTHE RD,OH,44023,41.4122,-81.3375,39035
8979,1618,550 N PROGRESS AVE,PA,17109,40.2985,-76.8467,42043
1639,1065,105 S SPORTING HILL RD,PA,17050,40.2368,-76.9713,42041
1657,1885,2080 S QUEEN ST,PA,17403,39.936,-76.6933,42133
1671,1068,1507 LITITZ PIKE,PA,17601,40.0647,-76.3062,42071
1330,7925,275 Baltimore Boulevard,MD,21157,39.5751,-76.9855,24013
7132,820,3015 LINCOLN HWY,PA,19372,39.9937,-75.764,42029
2687,812,105 E UWCHLAN AVE,PA,19341,40.061,-75.654,42029
16391,34,580 MARKETPLACE DR,MD,21014,39.5256,-76.3508,24025
2296,421,3295 PA ROUTE 100,PA,18062,40.5182,-75.5612,42011
2296,421,3295 PA ROUTE 100,PA,18062,40.5182,-75.5612,42077
2335,1152,8032C LIBERTY RD,MD,21701,39.4493,-77.3865,24021
4650,1706,300 BALLENGER CENTER DR,MD,21703,39.3954,-77.437,24021
2956,1856,5414 ROTARY AVE,MD,21774,39.3826,-77.256,24021
10203,1815,3350 WORTHINGTON BLVD,MD,21704,39.3264,-77.3448,24021
5707,2023,6040 SYKESVILLE RD,MD,21784,39.4093,-76.9508,24013
5707,2023,6040 SYKESVILLE RD,MD,21784,39.4093,-76.9508,24027
3743,1989,110 MAJESTIC GROVE RD,TN,37920,35.9073,-83.84,47009
3743,1989,110 MAJESTIC GROVE RD,TN,37920,35.9073,-83.84,47155
3743,1989,110 MAJESTIC GROVE RD,TN,37920,35.9073,-83.84,47093
2404,1745,417 E EMORY RD,TN,37849,36.0501,-83.9984,47093
2404,1745,417 E EMORY RD,TN,37849,36.0501,-83.9984,47001
6363,346,6005 KINGSTON PIKE,TN,37919,35.9337,-84.0016,47093
4624,340,9137 MIDDLEBROOK PIKE,TN,37923,35.9421,-84.0924,47093
7698,350,9435 S NORTHSHORE DR,TN,37922,35.8631,-84.0662,47093
7698,350,9435 S NORTHSHORE DR,TN,37922,35.8631,-84.0662,47105
1159,808,760 MILES RD,PA,19380,39.9639,-75.6284,42029
1074,401,870 E BALTIMORE PIKE,PA,19348,39.8621,-75.6802,42029
3042,34244,1545 PULASKI HIGHWAY,DE,19701,39.623,-75.6852,10003
399,807,1776 E LANCASTER AVE,PA,19301,40.0416,-75.4743,42029
7259,1190,1206 N. Gravel Pike,PA,19492,40.2762,-75.48,42091
1148,1782,905 S MAIN ST,CT,06410,41.4804,-72.9065,9110
1148,1782,905 S MAIN ST,CT,06410,41.4804,-72.9065,9170
1148,1782,905 S MAIN ST,CT,06410,41.4804,-72.9065,9140
1036,419,2434 CATASAUQUA RD,PA,18018,40.6435,-75.4273,42095
1036,419,2434 CATASAUQUA RD,PA,18018,40.6435,-75.4273,42077
1093,1446,7001 NORTH HWY ROUTE 309,PA,18036,40.516,-75.3852,42077
1093,1446,7001 NORTH HWY ROUTE 309,PA,18036,40.516,-75.3852,42017
2688,813,55 PARK AVE,PA,19426,40.1801,-75.4566,42091
1379,402,840 S VALLEY FORGE RD,PA,19446,40.2412,-75.3034,42091
5241,1761,3265 COUNTY LINE RD,PA,18914,40.244,-75.1908,42017
5241,1761,3265 COUNTY LINE RD,PA,18914,40.244,-75.1908,42091
6596,1510,321A LAFAYETTE RD,NH,03842,42.9368,-70.8374,33015
813,1383,1034 2ND STREET PIKE,PA,18954,40.2165,-75.0115,42017
5447,817,200 S LINCOLN AVE,PA,18940,40.2259,-74.9324,42017
1193,809,835 OLD YORK RD,PA,19046,40.1059,-75.1236,42091
1193,809,835 OLD YORK RD,PA,19046,40.1059,-75.1236,42101
740,14143,10901C BUSTLETON AVENUE,PA,19116,40.1123,-75.023,42017
740,14143,10901C BUSTLETON AVENUE,PA,19116,40.1123,-75.023,42101
295,14151,504 S OXFORD VALLEY RD,PA,19030,40.1695,-74.8511,42017
10825,2133,2400 BUTLER PIKE,PA,19462,40.1097,-75.2729,42091
791,2131,920 BETHLEHEM PIKE,PA,19038,40.0974,-75.2125,42091
824,1441,2721 BRUNSWICK PIKE,NJ,08648,40.2651,-74.7191,34021
2481,810,312 S HENDERSON RD,PA,19406,40.0914,-75.3585,42091
817,661,4 SCHALKS CROSSING RD,NJ,08536,40.3352,-74.5942,34023
371,399,6501 HARBISON AVE,PA,19149,40.0346,-75.0634,42101
8984,1619,6701 RIDGE AVE STE 1,PA,19128,40.041,-75.2238,42101
8984,1619,6701 RIDGE AVE STE 1,PA,19128,40.041,-75.2238,42091
2079,1477,508 HIGH ST,NJ,08060,40.0046,-74.795,34005
668,677,3110 ROUTE 38,NJ,08054,39.9702,-74.8734,34005
836,370,824 N BLACK HORSE PIKE,NJ,08078,39.8566,-75.0747,34007
2235,1780,600 KINGS HWY N,NJ,08034,39.9249,-74.9998,34007
362,369,307 EGG HARBOR RD,NJ,08080,39.7637,-75.0865,34015
362,369,307 EGG HARBOR RD,NJ,08080,39.7637,-75.0865,34007
4017,959,28 MAGOTHY BEACH RD,MD,21122,39.1197,-76.518,24003
2775,43,2601 RIVA RD,MD,21401,38.9756,-76.5561,24003
2033,1612,3025 SOLOMONS ISLAND RD,MD,21037,38.9434,-76.5603,24003
22,989,320 40TH ST NE,DC,20019,38.8935,-76.9477,11001
2750,1692,1201 S HAYES ST,VA,22202,38.8624,-77.0588,51013
2204,194,4859 MACARTHUR BLVD NW,DC,20007,38.9168,-77.0954,11001
1407,609,3133 LEE HWY,VA,22201,38.8965,-77.0969,51013
2174,193,4555 WISCONSIN AVE NW,DC,20016,38.9494,-77.0799,11001
1434,585,"7939 NEW HAMPSHIRE AVE, LANGLEY PARK PLAZA SHOPPING CENTER",MD,20783,38.9895,-76.9859,24033
1434,585,"7939 NEW HAMPSHIRE AVE, LANGLEY PARK PLAZA SHOPPING CENTER",MD,20783,38.9895,-76.9859,24031
1831,63,7809 WISCONSIN AVE,MD,20814,38.989,-77.0948,24031
1492,1325,9520 GEORGIA AVE,MD,20910,39.0108,-77.0421,24031
1448,586,8201 ANNAPOLIS RD,MD,20784,38.9551,-76.8725,24033
1410,611,415 E MONROE AVE,VA,22301,38.8205,-77.0548,51510
1394,606,1636 BELLE VIEW BLVD,VA,22307,38.7765,-77.0619,51059
1402,1624,1062 ELDEN ST,VA,20170,38.9673,-77.3975,51107
1402,1624,1062 ELDEN ST,VA,20170,38.9673,-77.3975,51059
1417,613,13031 LEE JACKSON MEMORIAL HWY,VA,22033,38.8787,-77.3981,51059
1993,615,24795 PINEBROOK RD,VA,20152,38.9323,-77.5285,51059
1993,615,24795 PINEBROOK RD,VA,20152,38.9323,-77.5285,51107
17346,2221,45130 COLUMBIA PL,VA,20166,39.0093,-77.439,51107
1396,1997,11160 SOUTH LAKES DR,VA,20191,38.9383,-77.3303,51059
1416,2062,5652 PICKWICK RD.,VA,20120,38.8397,-77.4238,51107
1416,2062,5652 PICKWICK RD.,VA,20120,38.8397,-77.4238,51059
1449,62,7955 TUCKERMAN LN,MD,20854,39.0413,-77.1575,24031
169,411,799 ROCKVILLE PIKE,MD,20852,39.0763,-77.1407,24031
1459,588,12359 GEORGIA AVE,MD,20906,39.0611,-77.0498,24031
1399,607,3053 NUTLEY ST,VA,22031,38.8706,-77.261,51600
1399,607,3053 NUTLEY ST,VA,22031,38.8706,-77.261,51059
1403,608,337 MAPLE AVE E,VA,22180,38.9049,-77.2587,51059
2003,1855,3921 PROSPERITY AVE,VA,22031,38.8384,-77.245,51600
2003,1855,3921 PROSPERITY AVE,VA,22031,38.8384,-77.245,51059
1905,1854,134 W BROAD ST,VA,22046,38.8832,-77.172,51610
1905,1854,134 W BROAD ST,VA,22046,38.8832,-77.172,51059
1905,1854,134 W BROAD ST,VA,22046,38.8832,-77.172,51013
1383,602,7205 LITTLE RIVER TPKE,VA,22003,38.8296,-77.1937,51059
1397,1002,1452 CHAIN BRIDGE RD,VA,22101,38.9331,-77.1799,51013
1397,1002,1452 CHAIN BRIDGE RD,VA,22101,38.9331,-77.1799,51059
1424,2061,110 EDDS LANE,VA,20165,39.0406,-77.412,51059
1424,2061,110 EDDS LANE,VA,20165,39.0406,-77.412,51107
4038,375,19305 RUBY DR,VA,20176,39.0819,-77.4966,51107
5928,619,14380 MCGRAWS CORNER DR,VA,20155,38.7953,-77.6187,51153
5928,619,14380 MCGRAWS CORNER DR,VA,20155,38.7953,-77.6187,51061
1381,601,510 BLACKWELL RD,VA,20186,38.7272,-77.7914,51047
1381,601,510 BLACKWELL RD,VA,20186,38.7272,-77.7914,51061
794,960,10250 BRISTOW CENTER DR,VA,20136,38.7344,-77.5497,51153
17389,2222,9900 SOWDER VILLAGE SQ,VA,20109,38.7398,-77.5326,51153
3396,618,902 GARRISONVILLE RD,VA,22556,38.4696,-77.4602,51061
3396,618,902 GARRISONVILLE RD,VA,22556,38.4696,-77.4602,51179
1733,354,6360 HOADLY RD,VA,20112,38.6733,-77.396,51153
16394,2216,10301 NEW GUINEA RD,VA,22032,38.7984,-77.3011,51600
16394,2216,10301 NEW GUINEA RD,VA,22032,38.7984,-77.3011,51059
6852,620,16712 JEFFERSON DAVIS HWY,VA,22026,38.5893,-77.3059,51153
2100,617,9009 SILVERBROOK RD,VA,22039,38.7278,-77.2569,51059
16994,2220,1200 EDWARDS FERRY RD NE,VA,20176,39.1161,-77.5351,51107
1452,1432,"12215 DARNESTOWN RD, QUINCE ORCHARD MARKET PLACE",MD,20878,39.1188,-77.2539,24031
16767,2217,6100 ARLINGTON BLVD,VA,22044,38.8685,-77.1421,51610
16767,2217,6100 ARLINGTON BLVD,VA,22044,38.8685,-77.1421,51059
1470,1040,7600 SE CRAIN HWY,MD,20772,38.7848,-76.7937,24033
1881,596,"10095 WARD RD, DUNKIRK MKTPLACE",MD,20754,38.7184,-76.6594,24003
1881,596,"10095 WARD RD, DUNKIRK MKTPLACE",MD,20754,38.7184,-76.6594,24009
1796,1772,4200 ALTAMONT PL,MD,20695,38.5965,-76.9388,24017
392,1924,11458 KINGS HIGHWAY,VA,22485,38.2382,-77.1495,51193
392,1924,11458 KINGS HIGHWAY,VA,22485,38.2382,-77.1495,51099
1387,603,8330 OLD KEENE MILL RD,VA,22152,38.7807,-77.2333,51059
10454,1950,1511 JEFFERSON DAVIS HWY,VA,22401,38.3009,-77.4825,51630
1909,115,6480 OLD WATERLOO RD,MD,21075,39.1925,-76.7942,24027
7139,1860,8197 WESTSIDE BLVD,MD,20759,39.1483,-76.9089,24027
5733,116,8124 VETERANS HWY,MD,21108,39.1172,-76.635,24003
16427,31,4390 MONTGOMERY RD,MD,21043,39.25,-76.8173,24027
16427,31,4390 MONTGOMERY RD,MD,21043,39.25,-76.8173,24005
6765,394,2003 DAVIDSONVILLE RD,MD,21114,39.0185,-76.6935,24003
2043,109,3300 CENTENNIAL LN,MD,21042,39.2788,-76.8615,24027
1431,2096,3110 OLNEY SANDY SPRING RD,MD,20832,39.1507,-77.0636,24031
1490,589,546 N FREDERICK AVE,MD,20877,39.1479,-77.2098,24031
5790,881,11271 NUCKOLS RD,VA,23059,37.6815,-77.5896,51087
5790,881,11271 NUCKOLS RD,VA,23059,37.6815,-77.5896,51085
5790,881,11271 NUCKOLS RD,VA,23059,37.6815,-77.5896,51075
1980,877,7048 MECHANICSVILLE TPKE,VA,23111,37.6127,-77.3388,51127
1980,877,7048 MECHANICSVILLE TPKE,VA,23111,37.6127,-77.3388,51085
1994,878,3001 LAUDERDALE DR,VA,23233,37.6373,-77.6332,51087
1994,878,3001 LAUDERDALE DR,VA,23233,37.6373,-77.6332,51075
1550,1891,1600 RICHMOND RD,VA,23185,37.2922,-76.7247,51199
1550,1891,1600 RICHMOND RD,VA,23185,37.2922,-76.7247,51830
1550,1891,1600 RICHMOND RD,VA,23185,37.2922,-76.7247,51095
1550,1891,1600 RICHMOND RD,VA,23185,37.2922,-76.7247,51036
8288,14310,9026 SEMINOLE TRAIL,VA,22968,38.2342,-78.3679,51079
8288,14310,9026 SEMINOLE TRAIL,VA,22968,38.2342,-78.3679,51137
8288,14310,9026 SEMINOLE TRAIL,VA,22968,38.2342,-78.3679,51003
1537,868,5001 W BROAD ST,VA,23230,37.5842,-77.4978,51087
1537,868,5001 W BROAD ST,VA,23230,37.5842,-77.4978,51760
1988,1841,3514 W CARY ST,VA,23221,37.5561,-77.4865,51760
1656,1816,221 E HUNDRED RD,VA,23836,37.3479,-77.3574,51041
8497,1871,13000 WARWICK BLVD,VA,23602,37.1047,-76.5119,51700
8497,1871,13000 WARWICK BLVD,VA,23602,37.1047,-76.5119,51199
5796,1890,2315 W MERCURY BLVD,VA,23666,37.0368,-76.4081,51700
5796,1890,2315 W MERCURY BLVD,VA,23666,37.0368,-76.4081,51650
947,14273,28 ABBY RD.,VA,22963,37.8997,-78.3122,51065
1556,14137,1170 EMMET ST N,VA,22903,38.052,-78.5001,51003
1556,14137,1170 EMMET ST N,VA,22903,38.052,-78.5001,51540
3548,1838,2009 WARDS RD,VA,24502,37.3752,-79.1862,51680
3548,1838,2009 WARDS RD,VA,24502,37.3752,-79.1862,51019
3548,1838,2009 WARDS RD,VA,24502,37.3752,-79.1862,51031
1549,872,13180 MIDLOTHIAN TPKE,VA,23113,37.5032,-77.6419,51041
1549,872,13180 MIDLOTHIAN TPKE,VA,23113,37.5032,-77.6419,51145
1549,872,13180 MIDLOTHIAN TPKE,VA,23113,37.5032,-77.6419,51760
10088,1897,5829 HIGH ST W,VA,23703,36.8603,-76.3952,51550
10088,1897,5829 HIGH ST W,VA,23703,36.8603,-76.3952,51740
8226,1462,1688 LASKIN RD,VA,23451,36.8514,-76.0214,51810
255,1889,1329 KEMPSVILLE RD,VA,23320,36.7626,-76.2046,51810
255,1889,1329 KEMPSVILLE RD,VA,23320,36.7626,-76.2046,51550
12,867,13800 HULL STREET RD,VA,23112,37.408,-77.6579,51041
12,867,13800 HULL STREET RD,VA,23112,37.408,-77.6579,51145
7051,299,245 EAST ROOSEVELT AVE,NC,27587,35.9794,-78.5085,37069
7051,299,245 EAST ROOSEVELT AVE,NC,27587,35.9794,-78.5085,37183
7051,299,245 EAST ROOSEVELT AVE,NC,27587,35.9794,-78.5085,37077
16834,2209,12000 RETAIL DR,NC,27587,35.975,-78.5417,37069
16834,2209,12000 RETAIL DR,NC,27587,35.975,-78.5417,37183
16834,2209,12000 RETAIL DR,NC,27587,35.975,-78.5417,37077
4290,864,5311 N ROXBORO RD,NC,27712,36.0781,-78.9111,37135
4290,864,5311 N ROXBORO RD,NC,27712,36.0781,-78.9111,37063
7047,72,3573 HILLSBOROUGH ROAD,NC,27705,36.0217,-78.9535,37063
7047,72,3573 HILLSBOROUGH ROAD,NC,27705,36.0217,-78.9535,37135
5313,865,13304 LEESVILLE CHURCH RD,NC,27617,35.909,-78.7291,37183
5313,865,13304 LEESVILLE CHURCH RD,NC,27617,35.909,-78.7291,37063
16992,2211,4037 DURHAM CHAPEL HILL BLVD,NC,27707,35.9662,-78.9588,37063
16992,2211,4037 DURHAM CHAPEL HILL BLVD,NC,27707,35.9662,-78.9588,37135
3949,1844,2001 COLONIAL AVE SW,VA,24015,37.2563,-79.9546,51161
3949,1844,2001 COLONIAL AVE SW,VA,24015,37.2563,-79.9546,51770
6292,1800,7515 WILLIAMSON RD,VA,24019,37.3479,-79.9498,51161
6292,1800,7515 WILLIAMSON RD,VA,24019,37.3479,-79.9498,51023
6292,1800,7515 WILLIAMSON RD,VA,24019,37.3479,-79.9498,51770
7543,1788,550 N FRANKLIN ST,VA,24073,37.1367,-80.4147,51750
7543,1788,550 N FRANKLIN ST,VA,24073,37.1367,-80.4147,51121
7592,1771,31 W MAIN ST,VA,24141,37.1378,-80.5696,51121
7592,1771,31 W MAIN ST,VA,24141,37.1378,-80.5696,51750
7592,1771,31 W MAIN ST,VA,24141,37.1378,-80.5696,51063
7592,1771,31 W MAIN ST,VA,24141,37.1378,-80.5696,51155
3516,319,3325 ROBINHOOD RD,NC,27106,36.1163,-80.3122,37067
7026,326,2770 LEWISVILLE CLEMMONS RD,NC,27012,36.0225,-80.3826,37057
7026,326,2770 LEWISVILLE CLEMMONS RD,NC,27012,36.0225,-80.3826,37067
3832,320,1101 S MAIN ST,NC,27284,36.107,-80.0989,37081
3832,320,1101 S MAIN ST,NC,27284,36.107,-80.0989,37057
3832,320,1101 S MAIN ST,NC,27284,36.107,-80.0989,37067
5532,323,4601 US HIGHWAY 220 N,NC,27358,36.1946,-79.8934,37081
5532,323,4601 US HIGHWAY 220 N,NC,27358,36.1946,-79.8934,37157
3880,1694,309 E CORNWALLIS DR,NC,27408,36.1028,-79.7849,37081
5500,322,605 COLLEGE RD,NC,27410,36.0872,-79.8889,37081
3853,1843,2344 S CHURCH ST,NC,27215,36.0815,-79.4732,37081
3853,1843,2344 S CHURCH ST,NC,27215,36.0815,-79.4732,37001
17157,2214,8210 RENAISSANCE PKWY,NC,27713,35.9028,-78.9565,37183
17157,2214,8210 RENAISSANCE PKWY,NC,27713,35.9028,-78.9565,37063
17157,2214,8210 RENAISSANCE PKWY,NC,27713,35.9028,-78.9565,37037
17167,2196,2112 W PETERSON AVE,IL,60659,41.9912,-87.6825,17031
8751,1617,4051 N LINCOLN AVE,IL,60618,41.9555,-87.6793,17031
8747,1616,6150 N BROADWAY ST,IL,60660,41.9938,-87.6608,17031
8753,528,3637 N SOUTHPORT AVE,IL,60613,41.9482,-87.6636,17031
4778,1878,101 ASBURY AVE,IL,60202,42.0202,-87.6898,17031
16361,2189,2656 N ELSTON AVE,IL,60647,41.9289,-87.6849,17031
2540,93,4961 ROBERTS RD,OH,43026,40.0026,-83.1395,39097
2540,93,4961 ROBERTS RD,OH,43026,40.0026,-83.1395,39049
6192,96,2120 STRINGTOWN RD,OH,43123,39.8793,-83.0603,39097
6192,96,2120 STRINGTOWN RD,OH,43123,39.8793,-83.0603,39049
5060,1696,3424 S HIGH ST,OH,43207,39.8923,-82.9956,39049
8750,527,4801 N CENTRAL AVE,IL,60630,41.9683,-87.767,17031
5591,1661,178 TURNERSBURG HWY,NC,28625,35.8123,-80.8753,37097
5591,1661,178 TURNERSBURG HWY,NC,28625,35.8123,-80.8753,37159
5591,1661,178 TURNERSBURG HWY,NC,28625,35.8123,-80.8753,37059
5591,1661,178 TURNERSBURG HWY,NC,28625,35.8123,-80.8753,37003
7049,1834,10100 S MAIN ST,NC,27263,35.9019,-79.951,37151
7049,1834,10100 S MAIN ST,NC,27263,35.9019,-79.951,37081
3803,85,559 RIVER HWY,NC,28117,35.5945,-80.8696,37097
6402,500,127 S MAIN ST,NC,28036,35.4981,-80.8486,37119
6402,500,127 S MAIN ST,NC,28036,35.4981,-80.8486,37097
6402,500,127 S MAIN ST,NC,28036,35.4981,-80.8486,37025
6402,500,127 S MAIN ST,NC,28036,35.4981,-80.8486,37159
17249,2234,6150 BAYFIELD PKWY,NC,28027,35.4169,-80.6792,37025
17249,2234,6150 BAYFIELD PKWY,NC,28027,35.4169,-80.6792,37119
2749,497,5225 POPLAR TENT RD,NC,28027,35.4124,-80.6651,37025
2749,497,5225 POPLAR TENT RD,NC,28027,35.4124,-80.6651,37119
3563,1730,1504 2ND ST NE,NC,28601,35.7531,-81.336,37003
3563,1730,1504 2ND ST NE,NC,28601,35.7531,-81.336,37027
3563,1730,1504 2ND ST NE,NC,28601,35.7531,-81.336,37023
3563,1730,1504 2ND ST NE,NC,28601,35.7531,-81.336,37035
7321,866,11314 US 15 501 HWY N,NC,27517,35.8457,-79.0901,37135
7321,866,11314 US 15 501 HWY N,NC,27517,35.8457,-79.0901,37063
7321,866,11314 US 15 501 HWY N,NC,27517,35.8457,-79.0901,37037
17050,2213,1201 BEAVER CREEK COMMONS DR,NC,27502,35.7444,-78.8776,37183
17050,2213,1201 BEAVER CREEK COMMONS DR,NC,27502,35.7444,-78.8776,37037
2306,66,2797 NC HIGHWAY 55,NC,27519,35.7868,-78.8717,37183
2306,66,2797 NC HIGHWAY 55,NC,27519,35.7868,-78.8717,37037
7548,1837,605 N MAIN ST,NC,27526,35.5919,-78.7936,37085
7548,1837,605 N MAIN ST,NC,27526,35.5919,-78.7936,37183
6633,1784,7496 ROCKFISH RD,NC,28306,34.9821,-79.0156,37093
6633,1784,7496 ROCKFISH RD,NC,28306,34.9821,-79.0156,37017
6633,1784,7496 ROCKFISH RD,NC,28306,34.9821,-79.0156,37051
7564,355,625 E ROOSEVELT BLVD,NC,28112,34.9758,-80.5193,37179
4169,1839,522 OWEN DR,NC,28304,35.0343,-78.9326,37051
4169,1839,522 OWEN DR,NC,28304,35.0343,-78.9326,37093
7039,71,2994 KILDAIRE FARM RD,NC,27518,35.7172,-78.7884,37183
7054,1893,"4300 HWY 49 S, P.O. BOX 10",NC,28075,35.3227,-80.6489,37119
7054,1893,"4300 HWY 49 S, P.O. BOX 10",NC,28075,35.3227,-80.6489,37025
5463,359,9805 ROCKY RIVER RD,NC,28215,35.2841,-80.6709,37025
5463,359,9805 ROCKY RIVER RD,NC,28215,35.2841,-80.6709,37119
1742,1729,2901 WESLEY CHAPEL STOUTS RD,NC,28110,35.0484,-80.6455,37179
7492,88,3610 MATTHEWS MINT HILL RD,NC,28105,35.1387,-80.6822,37119
7492,88,3610 MATTHEWS MINT HILL RD,NC,28105,35.1387,-80.6822,37179
16370,2208,2021 WALNUT ST,NC,27518,35.7574,-78.7379,37183
427,861,13440 NC 210 HIGHWAY,NC,27504,35.5172,-78.5782,37101
427,861,13440 NC 210 HIGHWAY,NC,27504,35.5172,-78.5782,37085
2356,862,790 TIMBER DR,NC,27529,35.6867,-78.6166,37101
2356,862,790 TIMBER DR,NC,27529,35.6867,-78.6166,37183
2771,1677,11911 US 70 BUS HWY W,NC,27520,35.6567,-78.4797,37101
2771,1677,11911 US 70 BUS HWY W,NC,27520,35.6567,-78.4797,37183
10863,14199,2411 LANDMARK DR.,NC,27607,35.8158,-78.6984,37183
2471,68,6840 GLENWOOD AVE,NC,27612,35.8629,-78.7111,37183
7529,73,7201 US HIGHWAY 64 E,NC,27545,35.7991,-78.4865,37183
2313,67,2340 SPRING FOREST RD,NC,27615,35.8611,-78.6013,37183
17012,2212,4191 THE CIRCLE AT NORTH HILLS ST,NC,27609,35.8365,-78.6418,37183
3514,1673,442 S HIGHWAY 27,NC,28164,35.3536,-81.0912,37071
3514,1673,442 S HIGHWAY 27,NC,28164,35.3536,-81.0912,37109
3806,1862,1403 E MAIN ST,NC,28092,35.477,-81.2395,37109
3806,1862,1403 E MAIN ST,NC,28092,35.477,-81.2395,37035
3806,1862,1403 E MAIN ST,NC,28092,35.477,-81.2395,37071
2233,1585,6750 WILKINSON BLVD,NC,28012,35.2512,-81.0296,37071
2357,82,7920 SAM FURR RD,NC,28078,35.444,-80.894,37119
2357,82,7920 SAM FURR RD,NC,28078,35.444,-80.894,37025
5565,1670,1075 E HUDSON BLVD,NC,28054,35.2323,-81.1702,37071
17168,2215,9841 NORTHLAKE CENTRE PKWY,NC,28216,35.3503,-80.8599,37119
4299,499,1305 MATTHEWS TOWNSHIP PKWY,NC,28105,35.1224,-80.7169,37119
4299,499,1305 MATTHEWS TOWNSHIP PKWY,NC,28105,35.1224,-80.7169,37179
5550,2057,4724 CHARLOTTE HWY.,SC,29710,35.1158,-81.0644,45091
187,496,14125 STEELE CREEK RD,NC,28273,35.1024,-80.9876,37119
17215,2233,12830 WALKER BRANCH RD,NC,28273,35.1003,-80.9849,37119
7057,1731,105 E COLLEGE AVE,NC,28152,35.2505,-81.6666,37045
7567,1608,1888 BOILING SPRINGS RD,SC,29316,35.0166,-81.9602,45083
4382,1698,1751 E MAIN ST,SC,29307,34.9652,-81.8962,45021
4382,1698,1751 E MAIN ST,SC,29307,34.9652,-81.8962,45083
3582,1665,1605 FOUR SEASONS BLVD,NC,28792,35.3306,-82.4466,37089
3582,1665,1605 FOUR SEASONS BLVD,NC,28792,35.3306,-82.4466,37149
3582,1665,1605 FOUR SEASONS BLVD,NC,28792,35.3306,-82.4466,37021
7061,1087,5895 REIDVILLE RD,SC,29369,34.8864,-82.0661,45083
2559,83,10515 MALLARD CREEK RD,NC,28262,35.3424,-80.7676,37025
2559,83,10515 MALLARD CREEK RD,NC,28262,35.3424,-80.7676,37119
4122,1019,3300 WADE HAMPTON BLVD,SC,29687,34.9164,-82.3163,45045
7213,288,3310 SISKEY PKWY,NC,28105,35.0823,-80.7272,37119
7213,288,3310 SISKEY PKWY,NC,28105,35.0823,-80.7272,37179
1632,1669,9628 REA ROAD,NC,28277,35.0379,-80.8061,37119
5341,86,1142 N BROOME ST,NC,28173,34.9339,-80.7479,37179
7005,1734,333 LANCASTER BYP E,SC,29720,34.7339,-80.7681,45025
7005,1734,333 LANCASTER BYP E,SC,29720,34.7339,-80.7681,45057
2561,84,4100 CARMEL RD,NC,28226,35.1173,-80.8248,37119
5479,1682,7697 CHARLOTTE HWY,SC,29707,34.9355,-80.837,45057
5479,1682,7697 CHARLOTTE HWY,SC,29707,34.9355,-80.837,45091
4022,1489,210 E TRADE ST STE E186,NC,28202,35.2256,-80.8422,37119
3319,1984,9915 PARK CEDAR DR,NC,28210,35.0946,-80.8656,37119
7157,87,13845 CONLAN CIR,NC,28277,35.0559,-80.8511,37119
1571,1660,1740 HIGHWAY 160 W,SC,29708,35.0339,-80.9701,45091
4176,1668,11 RIVER RIDGE DR,NC,28803,35.5705,-82.5054,37021
7588,1667,612 MERRIMON AVE,NC,28804,35.6198,-82.5548,37021
7654,1824,2996 E HIGHWAY 501,SC,29526,33.7753,-78.9845,45051
7396,1623,1010 HIGHWAY 17 N,SC,29582,33.8372,-78.6677,45051
5516,1629,1303 38TH AVE N,SC,29577,33.7275,-78.8699,45051
5557,1833,6901 MARKET ST,NC,28411,34.263,-77.8293,37141
5557,1833,6901 MARKET ST,NC,28411,34.263,-77.8293,37129
1540,1825,3411 SOCASTEE BLVD,SC,29588,33.6848,-78.961,45051
3816,2073,4600 OLEANDER DRIVE,NC,28403,34.2099,-77.8864,37129
7345,1847,901 DOW RD,NC,28428,34.0468,-77.9002,37129
2736,1628,"3710 HIGHWAY 17, CORNER OF HWY 707",SC,29576,33.5681,-79.0348,45043
2736,1628,"3710 HIGHWAY 17, CORNER OF HWY 707",SC,29576,33.5681,-79.0348,45051
7521,1663,773 RUSS AVE,NC,28786,35.5035,-82.9908,37087
4165,1666,371 ASHEVILLE HWY,NC,28712,35.2474,-82.7233,37175
5671,1685,103 FOOTHILLS MALL DR,TN,37801,35.7372,-83.993,47123
5671,1685,103 FOOTHILLS MALL DR,TN,37801,35.7372,-83.993,47009
5671,1685,103 FOOTHILLS MALL DR,TN,37801,35.7372,-83.993,47105
5639,341,11946 KINGSTON PIKE,TN,37934,35.8712,-84.1809,47093
3888,1703,200 N HIGHWAY 25,SC,29690,34.9603,-82.434,45045
4286,1021,5269 CALHOUN MEMORIAL HWY,SC,29640,34.8249,-82.5624,45077
4026,1699,1300 TIGER BLVD,SC,29631,34.689,-82.8261,45007
4026,1699,1300 TIGER BLVD,SC,29631,34.689,-82.8261,45077
2246,1072,2210 LAURENS RD,SC,29607,34.8347,-82.3527,45045
5601,1988,570 HIGHWAY 321 N,TN,37771,35.81,-84.2638,47145
5601,1988,570 HIGHWAY 321 N,TN,37771,35.81,-84.2638,47105
7397,1089,3901  PELHAM RD,SC,29615,34.8603,-82.2652,45045
3206,1748,2424 N OCOEE ST,TN,37311,35.1779,-84.8644,47065
3206,1748,2424 N OCOEE ST,TN,37311,35.1779,-84.8644,47011
4507,1701,103 JESSE JEWELL PKWY SW,GA,30501,34.2968,-83.8251,13139
2250,1303,121 CLEMSON RD,SC,29229,34.0998,-80.8557,45079
7012,1307,"1330 DUTCH FORK RD, PO BOX 568",SC,29063,34.1249,-81.2361,45079
7012,1307,"1330 DUTCH FORK RD, PO BOX 568",SC,29063,34.1249,-81.2361,45063
5549,1305,1008 LAKE MURRAY BLVD,SC,29063,34.09,-81.1746,45079
5549,1305,1008 LAKE MURRAY BLVD,SC,29063,34.09,-81.1746,45063
7334,1306,5608 SUNSET BLVD,SC,29072,33.9942,-81.2275,45063
7556,1958,2401 SUNSET BLVD,SC,29169,34.0021,-81.1062,45063
830,1635,900 ASSEMBLY ST,SC,29201,33.9971,-81.033,45079
4295,1714,2062 WHISKEY RD,SC,29803,33.5184,-81.7161,45003
3113,1883,1602 CENTRAL AVE,SC,29483,33.0122,-80.2386,45015
3113,1883,1602 CENTRAL AVE,SC,29483,33.0122,-80.2386,45019
3113,1883,1602 CENTRAL AVE,SC,29483,33.0122,-80.2386,45035
4288,1591,2707 CELANESE RD,SC,29732,34.9754,-81.027,45091
4204,1823,301 N MAIN ST,SC,29483,33.0227,-80.172,45015
4204,1823,301 N MAIN ST,SC,29483,33.0227,-80.172,45019
4204,1823,301 N MAIN ST,SC,29483,33.0227,-80.172,45035
626,1882,8995 UNIVERSITY BLVD,SC,29406,32.9747,-80.0624,45019
626,1882,8995 UNIVERSITY BLVD,SC,29406,32.9747,-80.0624,45015
7537,1090,5215 ASHLEY PHOSPHATE RD,SC,29418,32.9141,-80.1065,45019
7537,1090,5215 ASHLEY PHOSPHATE RD,SC,29418,32.9141,-80.1065,45035
2192,632,698 FAIRVIEW RD,SC,29680,34.7052,-82.2585,45045
5575,1713,101 EDGEFIELD RD,SC,29841,33.5217,-81.9538,45003
5575,1713,101 EDGEFIELD RD,SC,29841,33.5217,-81.9538,45037
2243,1071,"2566 ASHLEY RIVER RD, ROUTE 21",SC,29414,32.8338,-80.0445,45019
2243,1071,"2566 ASHLEY RIVER RD, ROUTE 21",SC,29414,32.8338,-80.0445,45035
1039,1615,59 GEORGE ST,SC,29401,32.7836,-79.9363,45019
4583,2009,2703 WASHINGTON RD,GA,30909,33.5088,-82.0219,13073
4583,2009,2703 WASHINGTON RD,GA,30909,33.5088,-82.0219,13245
2242,1070,2580 WOODRUFF RD,SC,29681,34.8065,-82.2334,45045
2242,1070,2580 WOODRUFF RD,SC,29681,34.8065,-82.2334,45059
2194,633,224 E BUTLER RD,SC,29662,34.7841,-82.2961,45045
3838,1637,1405 E GREENVILLE ST,SC,29621,34.5271,-82.6381,45007
4263,1626,1676 N HIGHWAY 17,SC,29464,32.8244,-79.84,45019
7016,1627,"10317 OCEAN HWY, ROUTE 17 SOUTH",SC,29585,33.4378,-79.1301,45043
4489,1622,"1006 FORDING ISLAND RD, Kitty Crossing Shopping Center",SC,29910,32.257,-80.8508,45013
4556,14397,109 WEST HILL STREET,GA,30824,33.462,-82.5008,13189
4556,14397,109 WEST HILL STREET,GA,30824,33.462,-82.5008,13073
4556,14397,109 WEST HILL STREET,GA,30824,33.462,-82.5008,13301
2407,2003,4385 HEREFORD FARM RD,GA,30809,33.5341,-82.1309,13073
5566,1632,10 POPE AVE,SC,29928,32.1534,-80.7619,45013
4230,1653,150 JOHNNY MERCER BLVD,GA,31410,32.0161,-80.9869,13051
5520,1777,5401 ABERCORN ST,GA,31405,32.0279,-81.1091,13051
6369,1630,5690 OGEECHEE RD,GA,31405,32.0304,-81.2216,13051
7783,1631,2324 US HIGHWAY 17,GA,31324,31.9499,-81.3132,13029
2175,280,2738 N DECATUR RD,GA,30033,33.7931,-84.2813,13089
7689,1721,1520 AVENUE PLACE,GA,30329,33.801,-84.3288,13089
4604,81,865 N HIGHLAND AVE NE,GA,30306,33.7784,-84.3523,13121
4604,81,865 N HIGHLAND AVE NE,GA,30306,33.7784,-84.3523,13089
4505,80,5764 PEACHTREE INDUSTRIAL BLVD,GA,30341,33.9058,-84.2952,13089
4717,315,2429 MARTIN LUTHER KING JR DR SW,GA,30311,33.7523,-84.4667,13121
2089,75,4300 PACES FERRY RD SE  STE 170,GA,30339,33.8646,-84.4662,13067
2089,75,4300 PACES FERRY RD SE  STE 170,GA,30339,33.8646,-84.4662,13121
2841,335,5710 SUGARLOAF PKWY,GA,30043,33.9766,-84.0748,13135
7044,1565,687 JOHNSON FERRY RD,GA,30068,33.9662,-84.4122,13067
2227,79,11710 ALPHARETTA HWY,GA,30076,34.0659,-84.3201,13121
4682,1657,4895 POST RD,GA,30040,34.2088,-84.2189,13057
4682,1657,4895 POST RD,GA,30040,34.2088,-84.2189,13117
2279,282,5370 LAUREL SPRINGS PKWY,GA,30024,34.0852,-84.1615,13135
2279,282,5370 LAUREL SPRINGS PKWY,GA,30024,34.0852,-84.1615,13121
2279,282,5370 LAUREL SPRINGS PKWY,GA,30024,34.0852,-84.1615,13117
2965,336,1380 WOODSTOCK RD,GA,30075,34.0615,-84.4022,13121
2965,336,1380 WOODSTOCK RD,GA,30075,34.0615,-84.4022,13057
2965,336,1380 WOODSTOCK RD,GA,30075,34.0615,-84.4022,13067
7888,351,6120 HICKORY FLAT HWY,GA,30115,34.1758,-84.4201,13057
4522,1593,800 E WEST CONNECTOR,GA,30106,33.857,-84.5771,13097
4522,1593,800 E WEST CONNECTOR,GA,30106,33.857,-84.5771,13067
6106,1604,100 PIEDMONT RD,GA,30066,34.0133,-84.5477,13067
6106,1604,100 PIEDMONT RD,GA,30066,34.0133,-84.5477,13057
3013,74,3905 DUE WEST RD NW,GA,30064,33.9681,-84.6664,13067
2147,78,2782 N COBB PKWY,GA,30152,34.0227,-84.6256,13067
3766,337,3027 JIM MOORE RD,GA,30019,34.0363,-83.91,13135
3766,337,3027 JIM MOORE RD,GA,30019,34.0363,-83.91,13297
7637,1778,5848 HIGHWAY 124 W,GA,30548,34.1082,-83.6995,13013
7637,1778,5848 HIGHWAY 124 W,GA,30548,34.1082,-83.6995,13139
7637,1778,5848 HIGHWAY 124 W,GA,30548,34.1082,-83.6995,13157
7637,1778,5848 HIGHWAY 124 W,GA,30548,34.1082,-83.6995,13135
4138,424,2720 LOGANVILLE HWY,GA,30052,33.8816,-83.9374,13135
4138,424,2720 LOGANVILLE HWY,GA,30052,33.8816,-83.9374,13297
4138,424,2720 LOGANVILLE HWY,GA,30052,33.8816,-83.9374,13247
4138,424,2720 LOGANVILLE HWY,GA,30052,33.8816,-83.9374,13217
8419,353,4192 SALEM RD,GA,30016,33.579,-83.9634,13247
8419,353,4192 SALEM RD,GA,30016,33.579,-83.9634,13217
7064,347,5095 MOUNT ZION PKWY,GA,30281,33.5435,-84.2837,13063
7064,347,5095 MOUNT ZION PKWY,GA,30281,33.5435,-84.2837,13151
7064,347,5095 MOUNT ZION PKWY,GA,30281,33.5435,-84.2837,13247
5682,1600,2 N ZACK HINTON PKWY,GA,30253,33.4473,-84.1393,13151
2236,332,1600 TOWNE LAKE PKWY,GA,30189,34.1065,-84.5444,13057
5622,1599,495 CHARLES HARDY PKWY,GA,30157,33.91,-84.7795,13223
5622,1599,495 CHARLES HARDY PKWY,GA,30157,33.91,-84.7795,13067
8976,1609,965 JOE FRANK HARRIS PKWY SE,GA,30120,34.1983,-84.793,13223
8976,1609,965 JOE FRANK HARRIS PKWY SE,GA,30120,34.1983,-84.793,13015
2470,333,3785 SIXES RD,GA,30114,34.1786,-84.551,13057
5637,1683,736 W BANKHEAD HWY,GA,30180,33.7298,-84.9409,13097
5637,1683,736 W BANKHEAD HWY,GA,30180,33.7298,-84.9409,13223
5637,1683,736 W BANKHEAD HWY,GA,30180,33.7298,-84.9409,13045
154,331,6031 FAIRBURN RD,GA,30134,33.7519,-84.7298,13097
154,331,6031 FAIRBURN RD,GA,30134,33.7519,-84.7298,13223
5665,343,8034 E BRAINERD RD,TN,37421,35.0038,-85.1504,47065
7214,348,2305 HIGHWAY 34 E,GA,30265,33.4041,-84.7065,13077
2544,334,101 LEXINGTON CIR,GA,30269,33.422,-84.5595,13113
4760,1291,480 GLYNN ST N,GA,30214,33.4579,-84.4544,13121
4760,1291,480 GLYNN ST N,GA,30214,33.4579,-84.4544,13113
4160,1867,6381 ZEBULON RD,GA,31220,32.8807,-83.7733,13207
4160,1867,6381 ZEBULON RD,GA,31220,32.8807,-83.7733,13021
10357,1953,1544 BASS RD,GA,31210,32.9268,-83.7351,13021
10357,1953,1544 BASS RD,GA,31210,32.9268,-83.7351,13207
3782,338,6802 LEE HWY,TN,37421,35.0406,-85.1685,47065
4428,339,8600 HIXSON PIKE,TN,37343,35.2003,-85.1589,47065
2426,1746,5120 HIGHWAY 153,TN,37343,35.123,-85.2384,47065
5694,2008,9389 DAYTON PIKE,TN,37379,35.2373,-85.1997,47153
5694,2008,9389 DAYTON PIKE,TN,37379,35.2373,-85.1997,47065
5694,2008,9389 DAYTON PIKE,TN,37379,35.2373,-85.1997,47007
5687,344,"1301 DORCHESTER RD. , SUITE 117",TN,37405,35.0691,-85.2884,47065
5687,344,"1301 DORCHESTER RD. , SUITE 117",TN,37405,35.0691,-85.2884,47115
7289,349,796 RIDGEWAY AVE,TN,37377,35.1219,-85.3434,47153
7289,349,796 RIDGEWAY AVE,TN,37377,35.1219,-85.3434,47065
7289,349,796 RIDGEWAY AVE,TN,37377,35.1219,-85.3434,47115
1586,1873,3001 RICHARD B RUSSELL PKWY,GA,31088,32.5806,-83.695,13153
3637,1909,542325 US HIGHWAY 1,FL,32011,30.5628,-81.8299,12089
4415,1923,50 DUVAL STATION RD,FL,32218,30.4895,-81.6247,12031
3648,1912,3634 ROGERO RD,FL,32277,30.3657,-81.5884,12031
7980,658,121 W MACCLENNY AVE,FL,32063,30.2827,-82.1243,12003
1114,268,4475 SAN JUAN AVE,FL,32210,30.2825,-81.7198,12031
5254,271,4280 SOUTHSIDE BLVD,FL,32216,30.2701,-81.5597,12031
3631,1488,152 FRONT ST,FL,32082,30.2058,-81.3828,12031
3631,1488,152 FRONT ST,FL,32082,30.2058,-81.3828,12109
3486,654,906 BLANDING BLVD,FL,32065,30.1416,-81.7692,12019
4024,1079,5466 THOMASVILLE RD,FL,32312,30.5421,-84.2291,12073
4469,1621,1819 W TENNESSEE ST,FL,32304,30.4484,-84.3131,12073
5069,1888,2668 CRAWFORDVILLE HWY,FL,32327,30.1922,-84.3728,12129
5069,1888,2668 CRAWFORDVILLE HWY,FL,32327,30.1922,-84.3728,12073
5190,657,430 STATE ROAD 13,FL,32259,30.1207,-81.6261,12109
5190,657,430 STATE ROAD 13,FL,32259,30.1207,-81.6261,12031
8377,273,120 SAINT JOHNS COMMONS RD,FL,32259,30.0607,-81.5118,12109
8377,273,120 SAINT JOHNS COMMONS RD,FL,32259,30.0607,-81.5118,12031
3591,655,2703 N PONCE DE LEON BLVD,FL,32084,29.916,-81.325,12109
3249,1588,1 OLD KINGS RD,FL,32137,29.5542,-81.2107,12035
1815,1693,4354 NW 23RD AVE,FL,32606,29.6745,-82.3894,12001
3255,1636,3404 SW ARCHER RD,FL,32608,29.6271,-82.3733,12001
214,1916,901 N WOODLAND BLVD,FL,32720,29.0432,-81.3033,12069
214,1916,901 N WOODLAND BLVD,FL,32720,29.0432,-81.3033,12127
3114,1487,2400 ENTERPRISE RD,FL,32763,28.9221,-81.2988,12127
5854,2066,2187 HOWLAND BLVD.,FL,32738,28.9248,-81.1911,12127
8381,2068,5208 E COUNTY RD 466,FL,32162,28.9279,-82.0165,12069
8381,2068,5208 E COUNTY RD 466,FL,32162,28.9279,-82.0165,12119
8381,2068,5208 E COUNTY RD 466,FL,32162,28.9279,-82.0165,12083
3748,1156,65 E MAIN ST,FL,32703,28.6738,-81.5099,12095
3748,1156,65 E MAIN ST,FL,32703,28.6738,-81.5099,12117
3253,102,1098 MONTGOMERY RD,FL,32714,28.6868,-81.4041,12095
3253,102,1098 MONTGOMERY RD,FL,32714,28.6868,-81.4041,12117
5817,1602,1800 E HIGHWAY 50,FL,34711,28.5476,-81.7227,12069
3490,104,5650 RED BUG LAKE RD,FL,32708,28.6485,-81.2695,12117
3150,101,221 S STATE RD 434,FL,32714,28.6595,-81.4184,12095
3150,101,221 S STATE RD 434,FL,32714,28.6595,-81.4184,12117
5214,105,12280 LAKE UNDERHILL RD,FL,32825,28.5462,-81.2045,12095
1350,802,2831 MAGUIRE RD,FL,34786,28.5293,-81.5425,12095
3245,1521,4684 HIGHWAY 90,FL,32446,30.7692,-85.2041,12063
3550,1430,11801 PANAMA CITY BEACH PKWY.,FL,32407,30.2006,-85.8209,12005
4612,1610,4562 E HIGHWAY 20,FL,32578,30.4842,-86.4162,12091
4612,1610,4562 E HIGHWAY 20,FL,32578,30.4842,-86.4162,12131
3003,1828,71 MARY ESTHER BLVD,FL,32569,30.4099,-86.6548,12113
3003,1828,71 MARY ESTHER BLVD,FL,32569,30.4099,-86.6548,12091
4015,1364,302 E JAMES LEE BLVD,FL,32539,30.7626,-86.5696,12091
4015,1364,302 E JAMES LEE BLVD,FL,32539,30.7626,-86.5696,12131
4449,1333,"6501 CAROLINE ST, HWY 90",FL,32570,30.6167,-87.0509,12113
5176,1596,225 GULF BREEZE PKWY,FL,32561,30.3658,-87.1711,12113
5176,1596,225 GULF BREEZE PKWY,FL,32561,30.3658,-87.1711,12033
4458,1781,8100 N DAVIS HWY,FL,32514,30.5109,-87.2194,12033
1055,1379,2090 S HIGHWAY 29,FL,32533,30.5708,-87.2903,12033
5249,1810,3888 HIGHWAY 90,FL,32571,30.5997,-87.1621,12113
170,103,839 N ORLANDO AVE,FL,32789,28.6044,-81.3657,12095
5216,1845,2702 S ORANGE AVE,FL,32806,28.5125,-81.3768,12095
7889,806,8025 LEE VISTA BLVD,FL,32829,28.4666,-81.2755,12095
4108,100,7599 W SAND LAKE RD,FL,32819,28.4507,-81.4869,12095
3671,398,10701 INTERNATIONAL DR,FL,32821,28.4077,-81.4554,12095
3671,398,10701 INTERNATIONAL DR,FL,32821,28.4077,-81.4554,12097
5852,1603,13454 S ORANGE BLOSSOM TRL,FL,32837,28.3688,-81.4052,12095
5852,1603,13454 S ORANGE BLOSSOM TRL,FL,32837,28.3688,-81.4052,12097
2761,804,5308 W IRLO BRONSON MEMORIAL HWY,FL,34746,28.3319,-81.496,12097
476,1905,2454 E IRLO BRONSON MEMORIAL HWY,FL,34744,28.2794,-81.3452,12097
1750,803,7575 OSCEOLA POLK LINE RD,FL,33896,28.2605,-81.59,12105
1750,803,7575 OSCEOLA POLK LINE RD,FL,33896,28.2605,-81.59,12097
7973,1977,4500 PLEASANT HILL RD,FL,34746,28.1552,-81.4408,12097
5157,1962,1300 SW SAINT LUCIE WEST BLVD,FL,34986,27.3159,-80.3868,12111
7886,937,260 S US HIGHWAY 1,FL,33469,26.9584,-80.0855,12099
7886,937,260 S US HIGHWAY 1,FL,33469,26.9584,-80.0855,12085
10711,2109,16801 NW 67TH AVE.,FL,33015,25.9263,-80.3079,12086
3705,248,10701 NW 41ST ST,FL,33178,25.8122,-80.37,12086
17665,2228,10101 W FLAGLER ST,FL,33174,25.7716,-80.3604,12086
7887,251,12401 MIRAMAR PKWY,FL,33027,25.9796,-80.3123,12011
10699,2279,8740 BIRD RD,FL,33165,25.7324,-80.3367,12086
5010,748,306 LINCOLN RD,FL,33139,25.7904,-80.131,12086
3285,625,1700 S FEDERAL HWY,FL,33316,26.0997,-80.1362,12011
4201,1773,2240 E SUNRISE BLVD,FL,33304,26.1371,-80.1179,12011
17115,2224,5800 S UNIVERSITY DR,FL,33328,26.0485,-80.2497,12011
3291,626,4610 S UNIVERSITY DR,FL,33328,26.0637,-80.2515,12011
5079,253,10241 W BROWARD BLVD,FL,33324,26.1213,-80.2859,12011
7933,249,4701 S FLAMINGO RD,FL,33330,26.0628,-80.3145,12011
5924,246,8765 S DIXIE HWY,FL,33156,25.6893,-80.3071,12086
5136,749,11398 QUAIL ROOST DR,FL,33157,25.5925,-80.3777,12086
3401,244,12955 SW 112TH ST,FL,33186,25.6642,-80.4058,12086
17661,2227,7800 SW 104TH ST,FL,33156,25.6724,-80.323,12086
3236,745,726 CRANDON BLVD,FL,33149,25.6877,-80.1643,12086
3635,1835,1501 S FEDERAL HWY,FL,33062,26.2112,-80.1077,12011
7982,260,520 S FEDERAL HWY,FL,33432,26.3447,-80.0856,12011
7982,260,520 S FEDERAL HWY,FL,33432,26.3447,-80.0856,12099
8372,255,7016 BERACASA WAY,FL,33433,26.353,-80.1551,12099
5930,628,5701 CORAL RIDGE DR,FL,33076,26.298,-80.2782,12011
7173,936,6651 N MILITARY TRL STE 100,FL,33496,26.409,-80.1223,12099
1821,1827,1690 S FEDERAL HWY,FL,33483,26.4417,-80.0706,12099
17053,2223,10155 OKEECHOBEE BLVD,FL,33411,26.7114,-80.203,12099
5141,414,2482 PGA BLVD,FL,33410,26.844,-80.0713,12099
3854,934,11000 N MILITARY TRL,FL,33410,26.8411,-80.1043,12099
7891,258,8954 LANTANA RD,FL,33467,26.5901,-80.1886,12099
17288,2226,650 N CONGRESS AVE,FL,33426,26.5337,-80.0878,12099
1807,2015,1350 LEE BLVD,FL,33936,26.615,-81.6538,12071
1807,2015,1350 LEE BLVD,FL,33936,26.615,-81.6538,12051
7225,2087,5905 US HIGHWAY 301 S,FL,33578,27.8944,-82.3395,12057
3257,1301,704 W DR MARTIN LUTHER KING JR BLVD,FL,33584,27.9811,-82.2866,12057
3930,920,611 S HOWARD AVE,FL,33606,27.9378,-82.4835,12057
3814,1826,4120 HENDERSON BLVD,FL,33629,27.927,-82.513,12057
579,14268,110 BULLARD PKWY,FL,33617,28.0331,-82.3928,12057
3204,1075,5010 S FLORIDA AVE,FL,33813,27.9745,-81.9595,12105
6007,1811,6206 COMMERCE PALMS DR,FL,33647,28.116,-82.3792,12057
8396,922,1929 BRUCE B DOWNS BLVD,FL,33544,28.1851,-82.3546,12057
8396,922,1929 BRUCE B DOWNS BLVD,FL,33544,28.1851,-82.3546,12101
1771,1869,2322 LAND O LAKES BLVD,FL,33549,28.1911,-82.4652,12057
1771,1869,2322 LAND O LAKES BLVD,FL,33549,28.1911,-82.4652,12101
3703,1976,10925 STATE ROAD 54,FL,34655,28.1937,-82.6343,12101
3662,918,5357 EHRLICH RD,FL,33625,28.0842,-82.5415,12057
574,917,8001 9TH ST N,FL,33702,27.8455,-82.6462,12103
5253,1817,8801 W LINEBAUGH AVE,FL,33626,28.0451,-82.5835,12103
5253,1817,8801 W LINEBAUGH AVE,FL,33626,28.0451,-82.5835,12057
3579,407,3771 TAMPA RD,FL,34677,28.0439,-82.6769,12103
709,412,1000 E TARPON AVE,FL,34689,28.1457,-82.7394,12101
709,412,1000 E TARPON AVE,FL,34689,28.1457,-82.7394,12103
3654,1914,3501 54TH AVE S,FL,33711,27.7198,-82.6807,12103
5780,1417,4302 CORTEZ RD W,FL,34210,27.4619,-82.6046,12081
3686,919,30387 US HIGHWAY 19 N,FL,33761,28.0484,-82.7376,12103
4987,1840,2175 MAIN ST,FL,34698,28.0189,-82.7477,12103
2997,2112,15129 MADEIRA WAY,FL,33708,27.8024,-82.802,12103
3463,1959,8905 BRYAN DAIRY RD,FL,33777,27.8731,-82.7629,12103
3127,14224,99 MAGNOLIA AVE,FL,33823,28.0579,-81.7836,12105
406,2113,2400 TAMIAMI TRL,FL,33950,26.9166,-82.0464,12015
1067,2034,737 CAPE CORAL PKWY E,FL,33904,26.5633,-81.9584,12071
3281,2035,11241 MIROMAR SQUARE BLVD,FL,33928,26.4352,-81.7706,12021
3281,2035,11241 MIROMAR SQUARE BLVD,FL,33928,26.4352,-81.7706,12071
8927,2067,8831 IMMOKALEE RD.,FL,34120,26.2744,-81.6884,12021
5187,1376,2375 VANDERBILT BEACH RD,FL,34109,26.2444,-81.7699,12021
6413,2161,1300 TROTWOOD AVE.,TN,38401,35.6045,-87.0681,47187
6413,2161,1300 TROTWOOD AVE.,TN,38401,35.6045,-87.0681,47117
6413,2161,1300 TROTWOOD AVE.,TN,38401,35.6045,-87.0681,47119
6438,1987,903 MEMORIAL BLVD,TN,37172,36.5048,-86.882,47147
6424,47,1200 GALLATIN PIKE SOUTH,TN,37115,36.2477,-86.7213,47037
3293,44,100 GLEN OAK BLVD,TN,37075,36.3239,-86.6196,47165
7608,274,426 21ST AVE S,TN,37203,36.1457,-86.7994,47037
6437,49,3715 HILLSBORO PIKE,TN,37215,36.1091,-86.8124,47187
6437,49,3715 HILLSBORO PIKE,TN,37215,36.1091,-86.8124,47037
6435,48,4402 LEBANON PIKE,TN,37076,36.2154,-86.6042,47189
6435,48,4402 LEBANON PIKE,TN,37076,36.2154,-86.6042,47037
6431,763,2788 MURFREESBORO PIKE,TN,37013,36.0681,-86.6312,47037
6044,357,735 HARDING PL,TN,37211,36.0805,-86.7592,47037
6414,761,14299 OLD NASHVILLE HWY,TN,37167,35.9855,-86.5488,47149
6394,45,330 FRANKLIN RD STE 302,TN,37027,36.028,-86.7904,47037
6394,45,330 FRANKLIN RD STE 302,TN,37027,36.028,-86.7904,47187
6429,14202,1228 W MAIN ST.,TN,37087,36.2129,-86.3217,47189
6429,14202,1228 W MAIN ST.,TN,37087,36.2129,-86.3217,47159
6429,14202,1228 W MAIN ST.,TN,37087,36.2129,-86.3217,47169
2179,2079,4058 FRANKLIN RD.,TN,37128,35.8442,-86.47,47149
6415,46,1154 LIBERTY PIKE,TN,37067,35.927,-86.825,47187
386,758,4805 COLUMBIA PIKE,TN,37179,35.785,-86.9131,47187
5473,1244,2103 GAUSE BLVD E,LA,70461,30.2861,-89.7357,22103
8922,2020,1850 N HIGHWAY 190,LA,70433,30.4583,-90.0816,22103
8999,1813,2105 CLEARY AVE,LA,70001,29.9938,-90.1709,22051
167,1803,4401 S CLAIBORNE AVE,LA,70125,29.9406,-90.1042,22071
5442,1242,12589 AIRLINE HWY,LA,70047,29.9873,-90.364,22089
8309,1050,5360 HIGHLAND RD,LA,70808,30.3931,-91.1595,22033
1116,1043,7777 BLUEBONNET BLVD STE 100,LA,70810,30.3793,-91.0969,22033
10200,14135,2169 MIDLAND TRAIL,KY,40065,38.2139,-85.2586,21185
10200,14135,2169 MIDLAND TRAIL,KY,40065,38.2139,-85.2586,21211
2332,1249,101 WEST SHOWALTER DRIVE,KY,40324,38.1922,-84.5626,21017
2332,1249,101 WEST SHOWALTER DRIVE,KY,40324,38.1922,-84.5626,21067
2332,1249,101 WEST SHOWALTER DRIVE,KY,40324,38.1922,-84.5626,21209
6205,1203,10490 SHELBYVILLE RD.,KY,40223,38.2448,-85.5602,21111
4779,2070,2311 LIME KILN RD.,KY,40222,38.2847,-85.6277,21111
6940,1252,2000 HARRODSBURG RD,KY,40503,38.0259,-84.5349,21067
3975,1652,1002 SPRING ST,IN,47130,38.2799,-85.7458,18019
10657,2106,1950 STATE STREET,IN,47150,38.302,-85.8361,18019
10657,2106,1950 STATE STREET,IN,47150,38.302,-85.8361,18043
3962,14142,6710 HWY 311,IN,47172,38.3682,-85.7757,18019
3962,14142,6710 HWY 311,IN,47172,38.3682,-85.7757,18043
6123,1338,7410 BEECHMONT AVE,OH,45255,39.0733,-84.3506,39025
6123,1338,7410 BEECHMONT AVE,OH,45255,39.0733,-84.3506,39061
7790,1751,947 CINCINNATI BATAVIA PIKE,OH,45245,39.1004,-84.2632,39025
2964,1520,6632 S STATE ROUTE 48,OH,45039,39.3387,-84.2187,39165
2342,1518,7217 CINCINNATI DAYTON RD,OH,45069,39.3697,-84.3863,39061
2342,1518,7217 CINCINNATI DAYTON RD,OH,45069,39.3697,-84.3863,39017
6139,1339,710 N MAIN ST,OH,45066,39.5758,-84.2302,39165
6139,1339,710 N MAIN ST,OH,45066,39.5758,-84.2302,39113
4401,1704,5981 FAR HILLS AVE,OH,45429,39.6594,-84.1585,39113
5425,1597,8910 BROAD ST SW,OH,43062,40.0051,-82.6594,39089
5425,1597,8910 BROAD ST SW,OH,43062,40.0051,-82.6594,39045
5425,1597,8910 BROAD ST SW,OH,43062,40.0051,-82.6594,39049
2405,1906,955 N 21ST ST,OH,43055,40.0743,-82.4293,39089
1756,1850,8467 E MAIN ST,OH,43068,39.9553,-82.7723,39045
1756,1850,8467 E MAIN ST,OH,43068,39.9553,-82.7723,39049
1756,1850,8467 E MAIN ST,OH,43068,39.9553,-82.7723,39089
6185,95,1100 HILL RD N,OH,43147,39.9106,-82.7781,39045
6185,95,1100 HILL RD N,OH,43147,39.9106,-82.7781,39049
6185,95,1100 HILL RD N,OH,43147,39.9106,-82.7781,39089
3364,1590,111 W CHERRY ST,OH,43074,40.2447,-82.8647,39041
3364,1590,111 W CHERRY ST,OH,43074,40.2447,-82.8647,39089
6161,1851,7470 SAWMILL RD,OH,43016,40.1184,-83.0897,39159
6161,1851,7470 SAWMILL RD,OH,43016,40.1184,-83.0897,39049
6161,1851,7470 SAWMILL RD,OH,43016,40.1184,-83.0897,39041
5457,1535,3488 SELDOM SEEN RD,OH,43065,40.1695,-83.0894,39041
5457,1535,3488 SELDOM SEEN RD,OH,43065,40.1695,-83.0894,39049
6164,800,1725 WEST CENTRAL AVE,OH,43015,40.3091,-83.1092,39041
6164,800,1725 WEST CENTRAL AVE,OH,43015,40.3091,-83.1092,39159
2381,1519,9151 S OLD STATE RD,OH,43035,40.1498,-82.9972,39041
3992,1898,620 S CLEVELAND AVE,OH,43081,40.1113,-82.9486,39049
3992,1898,620 S CLEVELAND AVE,OH,43081,40.1113,-82.9486,39041
6151,1918,900 COSHOCTON AVE,OH,43050,40.3996,-82.4562,39117
6151,1918,900 COSHOCTON AVE,OH,43050,40.3996,-82.4562,39083
6151,1918,900 COSHOCTON AVE,OH,43050,40.3996,-82.4562,39089
3321,1973,2284 BACK ORRVILLE RD,OH,44691,40.8291,-81.9078,39169
3321,1973,2284 BACK ORRVILLE RD,OH,44691,40.8291,-81.9078,39005
6167,2000,418 E MAIN ST,OH,44805,40.8682,-82.3069,39005
6167,2000,418 E MAIN ST,OH,44805,40.8682,-82.3069,39139
3481,1671,969 W 5TH ST,OH,43040,40.2384,-83.3831,39159
3481,1671,969 W 5TH ST,OH,43040,40.2384,-83.3831,39041
6188,1672,111 S MEMORIAL DR,OH,43130,39.7131,-82.6068,39073
6188,1672,111 S MEMORIAL DR,OH,43130,39.7131,-82.6068,39045
6183,14133,2987 DERR RD.,OH,45503,39.9657,-83.7868,39023
3458,1664,1331 N FAIRFIELD RD,OH,45432,39.7288,-84.0579,39057
3458,1664,1331 N FAIRFIELD RD,OH,45432,39.7288,-84.0579,39113
3476,1744,914 W MAIN ST,OH,45371,39.96,-84.1856,39113
3476,1744,914 W MAIN ST,OH,45371,39.96,-84.1856,39109
5458,1919,2565 LONDON GROVEPORT RD,OH,43123,39.8383,-83.0742,39097
5458,1919,2565 LONDON GROVEPORT RD,OH,43123,39.8383,-83.0742,39049
8029,1819,2025 FORT ST,MI,48192,42.2131,-83.1802,26163
3353,1566,3288 OBERLIN AVE,OH,44053,41.4417,-82.1853,39093
8190,1711,45300 CHERRY HILL RD,MI,48187,42.3079,-83.4866,26161
8190,1711,45300 CHERRY HILL RD,MI,48187,42.3079,-83.4866,26163
3584,1779,209 S STATE ST,MI,48104,42.2799,-83.7406,26161
103,622,44300 5 MILE RD,MI,48168,42.3963,-83.4806,26161
103,622,44300 5 MILE RD,MI,48168,42.3963,-83.4806,26163
8081,1707,17120 KERCHEVAL AVE,MI,48230,42.3903,-82.9147,26163
4304,231,30791 DETROIT RD,OH,44145,41.4607,-81.9601,39035
2587,1842,27713 LORAIN RD,OH,44070,41.4125,-81.9289,39035
3329,1464,11706 CLIFTON BLVD,OH,44107,41.4881,-81.7692,39035
4300,230,13777 PEARL RD,OH,44136,41.3137,-81.8343,39035
4300,230,13777 PEARL RD,OH,44136,41.3137,-81.8343,39103
10190,1762,770 E DUPONT RD,IN,46825,41.178,-85.1316,18003
5369,970,6279 E STATE BLVD,IN,46815,41.1009,-85.0607,18003
5696,1507,10170 ILLINOIS RD # 14,IN,46804,41.0749,-85.2742,18003
2063,1650,7292 FULTON DR NW,OH,44718,40.86,-81.4846,39151
2385,1587,1339 N MAIN ST,OH,44720,40.8902,-81.4065,39153
2385,1587,1339 N MAIN ST,OH,44720,40.8902,-81.4065,39151
10209,1852,3761 MASSILLON RD,OH,44685,40.9595,-81.4646,39151
10209,1852,3761 MASSILLON RD,OH,44685,40.9595,-81.4646,39153
3306,1589,1949 W MARKET ST,OH,44313,41.1139,-81.5779,39153
3334,1830,7259 PEARL RD,OH,44130,41.3676,-81.8038,39035
4057,229,9 W 130TH ST,OH,44233,41.276,-81.7844,39103
4057,229,9 W 130TH ST,OH,44233,41.276,-81.7844,39035
4351,1592,6005 SOM CENTER RD,OH,44094,41.6064,-81.439,39085
4351,1592,6005 SOM CENTER RD,OH,44094,41.6064,-81.439,39055
3343,1970,1491 SOM CENTER RD,OH,44124,41.5205,-81.4372,39035
4499,1524,1443 RICHMOND RD,OH,44124,41.5204,-81.4962,39035
10893,2280,5812 RIDGE RD.,OH,44129,41.4045,-81.7349,39035
3359,1485,33840 AURORA RD,OH,44139,41.3848,-81.4382,39035
3301,408,28100 CHAGRIN BLVD,OH,44122,41.4617,-81.479,39035
4437,232,10085 DARROW RD,OH,44087,41.3404,-81.439,39153
4345,1832,14440 CEDAR RD,OH,44121,41.5009,-81.5207,39035
4301,1709,9302 OLDE 8 RD,OH,44067,41.3129,-81.5384,39153
4359,1705,5783 DARROW RD,OH,44236,41.2226,-81.4397,39153
4359,1705,5783 DARROW RD,OH,44236,41.2226,-81.4397,39133
6840,1455,13085 TEGLER DR,IN,46060,39.9966,-85.9324,18095
6840,1455,13085 TEGLER DR,IN,46060,39.9966,-85.9324,18057
1138,1324,11591 OLIO RD,IN,46037,39.9573,-85.9178,18057
1138,1324,11591 OLIO RD,IN,46037,39.9573,-85.9178,18097
5206,58,3280 STATE ROAD 32 E,IN,46074,40.0434,-86.1098,18057
6998,59,9805 GEIST CROSSING DR,IN,46256,39.8998,-85.9934,18097
6998,59,9805 GEIST CROSSING DR,IN,46256,39.8998,-85.9934,18057
6536,974,2340 W SYCAMORE ST,IN,46901,40.4882,-86.1644,18103
6536,974,2340 W SYCAMORE ST,IN,46901,40.4882,-86.1644,18067
6536,974,2340 W SYCAMORE ST,IN,46901,40.4882,-86.1644,18017
6605,57,9550 ALLISONVILLE RD,IN,46250,39.9264,-86.0677,18097
6605,57,9550 ALLISONVILLE RD,IN,46250,39.9264,-86.0677,18057
4633,2027,1233 NORTH STATE ST,IN,46140,39.8004,-85.7692,18139
4633,2027,1233 NORTH STATE ST,IN,46140,39.8004,-85.7692,18059
4633,2027,1233 NORTH STATE ST,IN,46140,39.8004,-85.7692,18145
8669,1963,7240 E 82ND ST,IN,46256,39.9058,-86.0402,18097
8669,1963,7240 E 82ND ST,IN,46256,39.9058,-86.0402,18057
8674,1012,1421 S RANGE LINE RD,IN,46032,39.9588,-86.1262,18057
1367,651,13090 PETTIGRU ST,IN,46032,39.9768,-86.2056,18057
6572,56,1375 W 86TH ST,IN,46260,39.9118,-86.183,18057
6572,56,1375 W 86TH ST,IN,46260,39.9118,-86.183,18097
6565,55,1466 W OAK ST,IN,46077,39.9509,-86.2806,18011
6565,55,1466 W OAK ST,IN,46077,39.9509,-86.2806,18057
6565,55,1466 W OAK ST,IN,46077,39.9509,-86.2806,18097
6565,55,1466 W OAK ST,IN,46077,39.9509,-86.2806,18063
6611,290,5925 E 71ST ST,IN,46220,39.8828,-86.0665,18097
6666,1680,207 S LEBANON ST,IN,46052,40.0463,-86.4686,18063
6666,1680,207 S LEBANON ST,IN,46052,40.0463,-86.4686,18011
8651,1563,512 SAGAMORE PKWY W,IN,47906,40.4539,-86.9147,18181
8651,1563,512 SAGAMORE PKWY W,IN,47906,40.4539,-86.9147,18171
8651,1563,512 SAGAMORE PKWY W,IN,47906,40.4539,-86.9147,18157
6555,1099,21 W MAIN ST,IN,46112,39.8431,-86.3987,18063
6555,1099,21 W MAIN ST,IN,46112,39.8431,-86.3987,18011
6608,60,5026 W US 52,IN,46163,39.7229,-85.8958,18097
6608,60,5026 W US 52,IN,46163,39.7229,-85.8958,18145
6608,60,5026 W US 52,IN,46163,39.7229,-85.8958,18059
6559,650,7990 E US HIGHWAY 36,IN,46123,39.7635,-86.3818,18063
6553,1310,2320 CUNNINGHAM RD,IN,46224,39.7983,-86.266,18097
6551,649,523 S STATE ROAD 67,IN,46158,39.6023,-86.3732,18109
6551,649,523 S STATE ROAD 67,IN,46158,39.6023,-86.3732,18063
6654,61,8970 S MERIDIAN ST,IN,46217,39.6356,-86.1591,18097
6549,1509,1545 N MERIDIAN ST,IN,46202,39.7881,-86.157,18097
6648,1309,655 US HIGHWAY 31 S,IN,46142,39.6072,-86.1086,18097
6648,1309,655 US HIGHWAY 31 S,IN,46142,39.6072,-86.1086,18081
6757,1607,2423 N NATIONAL RD,IN,47201,39.2228,-85.8897,18005
6757,1607,2423 N NATIONAL RD,IN,47201,39.2228,-85.8897,18013
6757,1607,2423 N NATIONAL RD,IN,47201,39.2228,-85.8897,18071
6697,975,2701 E 3RD ST,IN,47401,39.1647,-86.4976,18105
6697,975,2701 E 3RD ST,IN,47401,39.1647,-86.4976,18013
8639,1681,670 MARGARET AVE,IN,47802,39.4343,-87.4076,18167
8639,1681,670 MARGARET AVE,IN,47802,39.4343,-87.4076,18021
6910,1479,505 E 1100 N,IN,46304,41.593,-87.0444,18127
6905,1674,1805 CALUMET AVE,IN,46383,41.4848,-87.0522,18091
6905,1674,1805 CALUMET AVE,IN,46383,41.4848,-87.0522,18127
6483,2042,1407 LINCOLNWAY,IN,46350,41.6085,-86.7278,18091
434,14150,8100 EAST RIDGE RD.,IN,46342,41.5512,-87.2398,18127
434,14150,8100 EAST RIDGE RD.,IN,46342,41.5512,-87.2398,18089
2665,1676,2272 N MAIN ST,IN,46307,41.449,-87.3639,18127
2665,1676,2272 N MAIN ST,IN,46307,41.449,-87.3639,18089
4368,1016,801 MAIN ST,IN,46321,41.5229,-87.5087,18089
6908,1812,310 N HALLECK ST,IN,46310,41.2049,-87.1995,18073
6908,1812,310 N HALLECK ST,IN,46310,41.2049,-87.1995,18111
17128,2195,7300 191ST ST,IL,60487,41.5452,-87.7962,17031
17128,2195,7300 191ST ST,IL,60487,41.5452,-87.7962,17197
1773,505,9551 171ST ST,IL,60487,41.579,-87.8511,17031
1773,505,9551 171ST ST,IL,60487,41.579,-87.8511,17197
2798,508,3951 W 103RD ST,IL,60655,41.7054,-87.7203,17031
5836,1539,1228 E 53RD ST,IL,60615,41.7998,-87.5947,17031
8738,14193,741 W 31ST,IL,60616,41.8377,-87.6454,17031
8505,521,6748 W 111TH ST,IL,60482,41.6908,-87.7873,17031
2387,1263,130 E CLEVELAND RD,IN,46530,41.7245,-86.177,18039
2387,1263,130 E CLEVELAND RD,IN,46530,41.7245,-86.177,18141
8645,1266,4501 LINCOLNWAY E,IN,46544,41.6657,-86.1075,18141
17009,2191,1154 S CLARK ST,IL,60605,41.8679,-87.6311,17031
6472,1499,410 S MAIN ST,IN,46526,41.5818,-85.8338,18039
8287,177,21777 21 MILE RD,MI,48044,42.6444,-82.8975,26099
8091,289,33021 GARFIELD RD,MI,48026,42.5394,-82.9505,26099
8144,1921,46960 VAN DYKE AVE,MI,48317,42.6399,-83.0322,26099
8144,1921,46960 VAN DYKE AVE,MI,48317,42.6399,-83.0322,26125
8113,178,2115 25 MILE RD,MI,48316,42.6976,-83.0932,26125
8113,178,2115 25 MILE RD,MI,48316,42.6976,-83.0932,26099
8174,1981,1402 W 14 MILE RD,MI,48017,42.5334,-83.1611,26125
8076,176,3010 WALTON BLVD,MI,48309,42.6813,-83.1948,26125
8049,175,4995 HIGHLAND RD,MI,48328,42.6593,-83.3855,26125
8021,179,30920 SOUTHFIELD RD,MI,48076,42.5166,-83.2224,26125
8262,174,39350 9 MILE RD,MI,48167,42.4541,-83.4335,26125
8262,174,39350 9 MILE RD,MI,48167,42.4541,-83.4335,26161
8262,174,39350 9 MILE RD,MI,48167,42.4541,-83.4335,26163
8002,169,100 WEST MAPLE RD,MI,48390,42.5379,-83.4826,26125
8004,170,720 GENERAL MOTORS RD,MI,48381,42.5834,-83.6107,26125
5714,1895,4840 DODGE ST,NE,68132,41.26,-95.9876,31055
2741,1974,6901 S 84TH ST,NE,68128,41.1903,-96.042,31055
2741,1974,6901 S 84TH ST,NE,68128,41.1903,-96.042,31153
5863,1954,14460 W MAPLE RD,NE,68116,41.2928,-96.1398,31055
8626,1896,7002 O ST,NE,68510,40.8139,-96.6242,31109
8616,1955,5566 S 56TH ST,NE,68516,40.7567,-96.6436,31109
8615,1964,1411 SUPERIOR ST,NE,68521,40.8569,-96.7,31109
2900,509,34344 N US HIGHWAY 45,IL,60030,42.3613,-88.0013,17097
17030,2194,3100 W IL RTE 60,IL,60060,42.2844,-88.0445,17097
3790,1613,1305 RANDALL RD,IL,60014,42.2051,-88.3357,17111
7181,519,101 S NORTHWEST HWY,IL,60010,42.1533,-88.128,17031
7181,519,101 S NORTHWEST HWY,IL,60010,42.1533,-88.128,17111
7181,519,101 S NORTHWEST HWY,IL,60010,42.1533,-88.128,17097
7181,519,101 S NORTHWEST HWY,IL,60010,42.1533,-88.128,17089
2902,961,520 N WESTERN AVE,IL,60045,42.249,-87.8393,17097
4787,292,1539 CLAVEY RD,IL,60035,42.1603,-87.808,17097
1776,34101,2730 COUNTY ROAD E EAST,MN,55110,45.0497,-92.9857,27003
1776,34101,2730 COUNTY ROAD E EAST,MN,55110,45.0497,-92.9857,27163
1776,34101,2730 COUNTY ROAD E EAST,MN,55110,45.0497,-92.9857,27123
1751,34097,2196 WHITE BEAR AVE N,MN,55109,45.007,-93.0245,27123
1751,34097,2196 WHITE BEAR AVE N,MN,55109,45.007,-93.0245,27163
1751,34097,2196 WHITE BEAR AVE N,MN,55109,45.007,-93.0245,27037
16214,23,7200 VALLEY CREEK PLZ,MN,55125,44.9269,-92.959,27163
16214,23,7200 VALLEY CREEK PLZ,MN,55125,44.9269,-92.959,27123
16163,22,3800 LEXINGTON AVE N,MN,55126,45.0564,-93.144,27003
16163,22,3800 LEXINGTON AVE N,MN,55126,45.0564,-93.144,27123
7152,34090,2357 108TH LN NE,MN,55449,45.1671,-93.2115,27123
7152,34090,2357 108TH LN NE,MN,55449,45.1671,-93.2115,27003
16953,38,1500 109TH AVE NE,MN,55449,45.1652,-93.2326,27123
16953,38,1500 109TH AVE NE,MN,55449,45.1652,-93.2326,27003
10252,34107,1411 VERMILLION ST,MN,55033,44.7318,-92.8517,27037
10252,34107,1411 VERMILLION ST,MN,55033,44.7318,-92.8517,27049
10252,34107,1411 VERMILLION ST,MN,55033,44.7318,-92.8517,27163
5161,34099,1040 GRAND AVE,MN,55105,44.9398,-93.1444,27123
17453,2182,15560 PILOT KNOB RD,MN,55124,44.7238,-93.175,27037
7110,34089,3633 BUNKER LAKE BLVD NW,MN,55304,45.2202,-93.3582,27003
17187,2176,1515 COUNTY ROAD B W,MN,55113,45.0081,-93.1642,27053
17187,2176,1515 COUNTY ROAD B W,MN,55113,45.0081,-93.1642,27123
6715,34104,4241 JOHNNY CAKE RIDGE RD,MN,55122,44.8039,-93.1853,27037
663,34102,15051 GALAXIE AVE,MN,55124,44.7311,-93.2081,27037
17306,39,1300 UNIVERSITY AVE W,MN,55104,44.9541,-93.1554,27123
5997,34091,2017 COON RAPIDS BLVD NW,MN,55433,45.1619,-93.3187,27003
16952,2174,11990 BUSINESS PARK BLVD N,MN,55316,45.1726,-93.3878,27053
17509,2185,15800 87TH ST NE,MN,55330,45.2788,-93.564,27003
17509,2185,15800 87TH ST NE,MN,55330,45.2788,-93.564,27171
17509,2185,15800 87TH ST NE,MN,55330,45.2788,-93.564,27141
16816,2173,18275 KENRICK AVE,MN,55044,44.6844,-93.2913,27139
16816,2173,18275 KENRICK AVE,MN,55044,44.6844,-93.2913,27037
3060,34103,8936 LYNDALE AVE S,MN,55420,44.8413,-93.2893,27053
17278,2179,755 53RD AVE NE,MN,55421,45.0658,-93.2517,27123
17278,2179,755 53RD AVE NE,MN,55421,45.0658,-93.2517,27003
17278,2179,755 53RD AVE NE,MN,55421,45.0658,-93.2517,27053
5920,34096,600 CENTRAL AVE E,MN,55376,45.2107,-93.6528,27171
3344,34108,4050 DEAN LAKES BLVD,MN,55379,44.7783,-93.4686,27139
16691,2171,111 PIONEER TRL,MN,55318,44.8274,-93.6011,27019
6507,34095,2420 W DIVISION ST,MN,56301,45.5528,-94.1871,27145
17368,2180,6445 RICHFIELD PKWY,MN,55423,44.8856,-93.2484,27053
16471,2169,1650 NEW BRIGHTON BLVD,MN,55413,45.0052,-93.2294,27053
8285,34098,1010 WEST LAKE STREET,MN,55408,44.9486,-93.2927,27053
5788,34106,6905 YORK AVE S,MN,55435,44.8778,-93.3206,27053
7197,34092,6300 WEDGEWOOD RD N,MN,55311,45.0695,-93.4503,27053
6811,34094,4140 COUNTY RD 101 N,MN,55446,45.0305,-93.5065,27053
17503,2184,875 E MAIN ST,MN,55387,44.8408,-93.7711,27019
17503,2184,875 E MAIN ST,MN,55387,44.8408,-93.7711,27053
16027,2167,13201 RIDGEDALE DR.,MN,55305,44.9697,-93.4478,27053
17269,2177,8900 HWY 7,MN,55426,44.936,-93.3932,27053
16695,2172,4848 COUNTY ROAD 101,MN,55345,44.9167,-93.5054,27053
16695,2172,4848 COUNTY ROAD 101,MN,55345,44.9167,-93.5054,27019
6649,34100,4656 EXCELSIOR BLVD,MN,55416,44.9337,-93.3396,27053
3562,34105,8251 COLUMBINE RD,MN,55344,44.8544,-93.4358,27053
5992,34093,7901 BASS LAKE RD,MN,55428,45.0547,-93.3813,27053
2788,1968,20 E DUNDEE RD,IL,60089,42.1393,-87.9578,17031
2788,1968,20 E DUNDEE RD,IL,60089,42.1393,-87.9578,17097
2863,291,2045 PLUM GROVE RD,IL,60008,42.0879,-88.0445,17031
2797,507,9640 N MILWAUKEE AVE,IL,60714,42.0554,-87.8396,17031
8734,296,1801 W GOLF RD,IL,60194,42.0469,-88.1246,17031
141,1141,936 WILLOW RD,IL,60062,42.1069,-87.8038,17031
7143,378,1855 W IRVING PARK RD,IL,60193,42.0025,-88.1267,17031
2860,358,110 W NORTH AVE,IL,60126,41.9057,-87.9406,17043
2860,358,110 W NORTH AVE,IL,60126,41.9057,-87.9406,17031
2786,376,255 N MCLEAN BLVD,IL,60177,41.9968,-88.3152,17089
8760,356,3333 CENTRAL ST,IL,60201,42.0653,-87.7269,17031
5688,324,1099 W ARMY TRAIL RD,IL,60103,41.9458,-88.2074,17043
5688,324,1099 W ARMY TRAIL RD,IL,60103,41.9458,-88.2074,17031
5688,324,1099 W ARMY TRAIL RD,IL,60103,41.9458,-88.2074,17089
5797,517,26W212 GENEVA RD,IL,60188,41.8882,-88.1368,17043
8744,525,9139 BROADWAY AVE,IL,60513,41.8283,-87.8501,17031
3163,1961,345 MADISON ST,IL,60302,41.8797,-87.7836,17031
17002,2190,7601 KINGERY HWY,IL,60527,41.7497,-87.9428,17043
17002,2190,7601 KINGERY HWY,IL,60527,41.7497,-87.9428,17031
8746,526,300 N EOLA RD,IL,60502,41.758,-88.244,17089
8746,526,300 N EOLA RD,IL,60502,41.758,-88.244,17043
4262,511,2211 S EOLA RD,IL,60503,41.7147,-88.2551,17093
4262,511,2211 S EOLA RD,IL,60503,41.7147,-88.2551,17089
4262,511,2211 S EOLA RD,IL,60503,41.7147,-88.2551,17197
17022,2193,28201 DIEHL RD,IL,60555,41.8007,-88.1695,17043
3665,1831,1299 E OGDEN AVE,IL,60563,41.7963,-88.1229,17043
17634,2199,1101 W JACKSON BLVD,IL,60607,41.8772,-87.6554,17031
6789,518,8645 WOODWARD AVE,IL,60517,41.7282,-88.0275,17043
6789,518,8645 WOODWARD AVE,IL,60517,41.7282,-88.0275,17197
4977,514,2050 NELSON RD,IL,60451,41.4821,-87.9831,17197
921,503,1155 W JEFFERSON ST,IL,60404,41.5208,-88.2173,17197
1170,295,3200 CATON FARM RD,IL,60431,41.565,-88.1626,17093
1170,295,3200 CATON FARM RD,IL,60431,41.565,-88.1626,17197
5822,293,11200 W LINCOLN HWY,IL,60448,41.5042,-87.8898,17031
5822,293,11200 W LINCOLN HWY,IL,60448,41.5042,-87.8898,17197
7142,294,16760 W DIVISION ST,IL,60441,41.584,-88.0253,17197
10555,2284,14290 SOUTH LA GRANGE RD,IL,60462,41.6321,-87.8546,17031
788,1947,344 W HUBBARD ST,IL,60654,41.8902,-87.6373,17031
17591,2198,1200 N LARRABEE ST,IL,60610,41.9042,-87.6442,17031
8698,523,1165 N CLARK,IL,60610,41.9037,-87.6312,17031
6745,14294,6999 PARKER RD.,MO,63033,38.7966,-90.2311,29189
10325,14381,8101 CLAYTON RD.,MO,63117,38.6388,-90.346,29510
10325,14381,8101 CLAYTON RD.,MO,63117,38.6388,-90.346,29189
2363,14263,8021 WATSON RD.,MO,63119,38.5684,-90.341,29510
2363,14263,8021 WATSON RD.,MO,63119,38.5684,-90.341,29189
3087,1969,11560 OLIVE BLVD,MO,63141,38.6706,-90.4379,29189
5643,1568,7334 S LINDBERGH BLVD,MO,63125,38.506,-90.3272,29189
5643,1568,7334 S LINDBERGH BLVD,MO,63125,38.506,-90.3272,29510
2341,2029,14400 CLAYTON RD,MO,63011,38.6212,-90.5238,29189
10053,1911,400 MID RIVERS MALL DR,MO,63376,38.7888,-90.6254,29183
6477,1985,3002 HIGHWAY K,MO,63368,38.7565,-90.6998,29183
5689,1506,15846 MANCHESTER RD,MO,63011,38.592,-90.5852,29189
10773,2097,2120 W OSAGE ST.,MO,63069,38.484,-90.769,29189
10773,2097,2120 W OSAGE ST.,MO,63069,38.484,-90.769,29071
10773,2097,2120 W OSAGE ST.,MO,63069,38.484,-90.769,29099
8570,756,1616 N 7 HWY,MO,64014,39.0371,-94.2698,29095
8581,1818,3201 S 7 HWY,MO,64014,38.9868,-94.2744,29095
8557,278,1900 E LANGSFORD RD,MO,64063,38.9174,-94.3373,29095
8564,275,17301 E US HIGHWAY 24,MO,64056,39.1194,-94.3739,29095
8430,130,3825 S NOLAND RD,MO,64055,39.0507,-94.4144,29095
8596,1836,601 S JEFFERSON ST,MO,64060,39.3675,-94.3612,29047
4088,757,3351 SW 3RD ST,MO,64081,38.9128,-94.4496,29095
8595,1321,1215 W FOXWOOD DR,MO,64083,38.8115,-94.4753,29037
5724,753,13101 STATE LINE RD,MO,64145,38.8901,-94.6073,29095
8586,1806,7100 W 151ST ST,KS,66223,38.8553,-94.6686,20091
8588,128,11729 ROE AVE,KS,66211,38.9157,-94.6374,20091
8573,683,11900 W 135TH ST,KS,66221,38.8867,-94.7244,20091
5655,1320,1901 W KANSAS ST,MO,64068,39.244,-94.4494,29047
5727,754,1301 PLATTE FALLS RD,MO,64079,39.3531,-94.7669,29165
5268,1966,390 LIMIT ST,KS,66048,39.2891,-94.9063,20103
5268,1966,390 LIMIT ST,KS,66048,39.2891,-94.9063,20209
8565,131,330 NE BARRY RD,MO,64155,39.2473,-94.5766,29165
8565,131,330 NE BARRY RD,MO,64155,39.2473,-94.5766,29047
8556,952,5440 NW 64TH ST,MO,64151,39.2112,-94.6438,29165
8556,952,5440 NW 64TH ST,MO,64151,39.2112,-94.6438,29047
8555,1319,4990 NE VIVION RD,MO,64119,39.1885,-94.5217,29047
8543,755,1914 SWIFT AVE,MO,64116,39.1423,-94.5777,29047
4521,685,22700 W 55TH TER,KS,66226,39.0285,-94.8491,20091
8590,1808,315 W 75TH St,MO,64114,38.9918,-94.5928,29047
8590,1808,315 W 75TH St,MO,64114,38.9918,-94.5928,29095
8602,684,7501 METCALF AVE,KS,66204,38.9927,-94.6667,20091
5265,1500,13502 W 87TH STREET PKWY,KS,66215,38.9718,-94.743,20091
8601,1368,12290 COLLEGE BLVD,KS,66210,38.9287,-94.7283,20091
10151,2072,3045 W. REPUBLIC ST.,MO,65807,37.1389,-93.3409,29077
10417,2083,1153 E ELM ST.,MO,65806,37.2052,-93.2762,29077
10115,2045,1220 E REPUBLIC RD,MO,65804,37.1376,-93.2779,29077
4850,2071,2715 E. BATTLEFIELD ST,MO,65804,37.1594,-93.2422,29077
1845,472,222 MAIN ST,MA,01887,42.5566,-71.1807,25017
676,1516,2300 IOWA ST,KS,66046,38.942,-95.2596,20045
5156,682,18351 W 119TH ST,KS,66061,38.9122,-94.798,20091
7477,647,2712 HIGHWAY 365,TX,77627,29.9544,-93.9872,48245
8351,1017,2950 DOWLEN RD,TX,77706,30.1053,-94.1676,48245
6235,362,106 W STATE HIGHWAY 152,OK,73064,35.391,-97.7251,40017
6236,363,2100 SW 119TH ST,OK,73170,35.3485,-97.5481,40027
6165,360,3651 W ROBINSON ST,OK,73072,35.2334,-97.4952,40027
6165,360,3651 W ROBINSON ST,OK,73072,35.2334,-97.4952,40087
11092,14232,15103 N. MACARTHUR BLVD,OK,73013,35.624,-97.6212,40109
6225,361,1520 S BRYANT AVE,OK,73013,35.6378,-97.4597,40109
213,234,5526 S CONGRESS AVE,TX,78745,30.2058,-97.7755,48453
6964,236,2610 LAKE AUSTIN BLVD,TX,78703,30.2816,-97.775,48453
8387,240,3500 W SLAUGHTER LN,TX,78749,30.1843,-97.8501,48453
10535,2105,220 SOUTH FM 1626,TX,78610,30.0966,-97.8755,48453
10535,2105,220 SOUTH FM 1626,TX,78610,30.0966,-97.8755,48055
10535,2105,220 SOUTH FM 1626,TX,78610,30.0966,-97.8755,48209
7442,237,11300 N LAMAR BLVD,TX,78753,30.3827,-97.6867,48453
80,300,2306 RANCH ROAD 620 S,TX,78734,30.3416,-97.9689,48453
2876,1913,201 S PRESTON RD,TX,75078,33.235,-96.7895,48085
2876,1913,201 S PRESTON RD,TX,75078,33.235,-96.7895,48121
10138,1789,11101 US HIGHWAY 380,TX,76227,33.2253,-96.9887,48121
17228,2205,1801 S LOOP 288,TX,76205,33.1893,-97.0988,48121
5962,563,3200 TEASLEY LN,TX,76210,33.1752,-97.1136,48121
8336,574,2591 FM 423,TX,75068,33.1778,-96.8867,48121
17403,2206,4885 ELDORADO PKWY,TX,75033,33.1731,-96.8446,48121
17403,2206,4885 ELDORADO PKWY,TX,75033,33.1731,-96.8446,48085
10016,1741,311 E PRINCETON DR,TX,75407,33.1735,-96.4965,48085
8321,573,2100 W EL DORADO PKWY,TX,75070,33.1728,-96.6446,48085
334,578,8995 STACY RD,TX,75070,33.1515,-96.7323,48085
17548,2207,"150 E STACY RD, STE 2400",TX,75002,33.1235,-96.6613,48085
1104,546,1540 E MAIN ST,TX,75002,33.0997,-96.6295,48085
7288,567,11661 PRESTON RD STE 218,TX,75230,32.9088,-96.8054,48113
16890,2202,2200 DALLAS PKWY,TX,75093,33.0308,-96.8269,48085
16890,2202,2200 DALLAS PKWY,TX,75093,33.0308,-96.8269,48121
7156,996,605 W CAMPBELL RD,TX,75080,32.9776,-96.7411,48085
7156,996,605 W CAMPBELL RD,TX,75080,32.9776,-96.7411,48113
4985,558,8335 WESTCHESTER DR STE 140,TX,75225,32.8644,-96.8069,48113
7196,405,4100 STATE HIGHWAY 121,TX,75010,33.0224,-96.9329,48121
7412,14130,5370 W LOVERS LN STE 310,TX,75209,32.8496,-96.8206,48113
8393,577,2101 W SPRING CREEK PKWY,TX,75023,33.0598,-96.7339,48085
3292,397,750 W FM 544,TX,75098,33.007,-96.5484,48113
3292,397,750 W FM 544,TX,75098,33.007,-96.5484,48085
3292,397,750 W FM 544,TX,75098,33.007,-96.5484,48397
15,545,5500 N MACARTHUR BLVD,TX,75038,32.8856,-96.9633,48113
7825,572,5401 LEBANON RD,TX,75034,33.1158,-96.8404,48121
7825,572,5401 LEBANON RD,TX,75034,33.1158,-96.8404,48085
16889,2201,3201 PRESTON RD,TX,75034,33.1048,-96.8125,48121
16889,2201,3201 PRESTON RD,TX,75034,33.1048,-96.8125,48085
3724,556,8940 COIT RD,TX,75025,33.1004,-96.7709,48085
1745,547,1100 FLOWER MOUND RD,TX,75028,33.0122,-97.0458,48439
1745,547,1100 FLOWER MOUND RD,TX,75028,33.0122,-97.0458,48121
10351,2017,3133 E LEMMON AVE,TX,75204,32.8069,-96.7979,48113
5314,560,1411 MAIN ST,TX,75202,32.7807,-96.7998,48113
7462,568,601 N INDUSTRIAL BLVD,TX,76021,32.8446,-97.1005,48439
3708,555,3701 IRA E WOODS AVE,TX,76051,32.914,-97.1266,48439
3708,555,3701 IRA E WOODS AVE,TX,76051,32.914,-97.1266,48113
5002,1928,7000 JUSTIN RD,TX,76226,33.0727,-97.1095,48121
10487,1951,1305 N. HWY 377,TX,76262,33.0159,-97.2202,48121
10487,1951,1305 N. HWY 377,TX,76262,33.0159,-97.2202,48439
7431,1010,3430 LAKEVIEW PKWY,TX,75088,32.9074,-96.5696,48397
7431,1010,3430 LAKEVIEW PKWY,TX,75088,32.9074,-96.5696,48113
7824,367,5702 LAVON DR,TX,75040,32.9678,-96.6071,48113
5869,562,1413 OATES DR,TX,75150,32.8424,-96.6246,48113
8337,575,2004 N GOLIAD ST,TX,75087,32.9509,-96.4619,48085
8337,575,2004 N GOLIAD ST,TX,75087,32.9509,-96.4619,48397
3197,579,775 E US HIGHWAY 80,TX,75126,32.7421,-96.4502,48257
3197,579,775 E US HIGHWAY 80,TX,75126,32.7421,-96.4502,48397
2979,1697,6120 E MOCKINGBIRD LN,TX,75214,32.836,-96.7607,48113
7809,1920,4203 S CARRIER PKWY,TX,75052,32.6716,-97.0048,48113
7809,1920,4203 S CARRIER PKWY,TX,75052,32.6716,-97.0048,48439
16892,2204,1400 PRECINCT LINE RD,TX,76053,32.8368,-97.1832,48439
2976,549,6401 PRECINCT LINE RD,TX,76182,32.8626,-97.1867,48439
7491,1978,385 E BELT LINE RD,TX,75104,32.5907,-96.9368,48113
7491,1978,385 E BELT LINE RD,TX,75104,32.5907,-96.9368,48139
3180,552,2200 MATLOCK RD,TX,76063,32.5953,-97.1071,48251
3180,552,2200 MATLOCK RD,TX,76063,32.5953,-97.1071,48139
3180,552,2200 MATLOCK RD,TX,76063,32.5953,-97.1071,48439
4794,557,5900 W PLEASANT RIDGE RD,TX,76016,32.6811,-97.1971,48439
7675,1894,105 HARRIS AVE,TX,75154,32.5312,-96.8203,48139
7675,1894,105 HARRIS AVE,TX,75154,32.5312,-96.8203,48113
7601,570,825 S CROWLEY RD,TX,76036,32.5668,-97.3515,48439
7601,570,825 S CROWLEY RD,TX,76036,32.5668,-97.3515,48251
7237,1972,3614 CAMP BOWIE BLVD,TX,76107,32.7474,-97.372,48439
7801,1739,6000 BRYANT IRVIN RD,TX,76132,32.6619,-97.4235,48439
7467,1480,460 NORTHWEST PKWY,TX,76020,32.8998,-97.5433,48367
7467,1480,460 NORTHWEST PKWY,TX,76020,32.8998,-97.5433,48497
7467,1480,460 NORTHWEST PKWY,TX,76020,32.8998,-97.5433,48439
7603,571,1301 N SAGINAW BLVD,TX,76179,32.8814,-97.3829,48439
16891,2203,8000 DENTON HWY,TX,76148,32.8892,-97.2566,48439
3134,551,801 NORTH TARRANT PKWY,TX,76248,32.8997,-97.2379,48439
8323,429,4426 WILLIAMS DR,TX,78628,30.6819,-97.7174,48491
6690,427,501 UNIVERSITY BLVD,TX,78665,30.5613,-97.6795,48491
7827,238,1855 GATTIS SCHOOL RD,TX,78664,30.4956,-97.6573,48491
7827,238,1855 GATTIS SCHOOL RD,TX,78664,30.4956,-97.6573,48453
526,1908,10550 W PARMER LN,TX,78717,30.4978,-97.7746,48491
10106,1957,2013 KELLY LN,TX,78660,30.469,-97.5887,48491
10106,1957,2013 KELLY LN,TX,78660,30.469,-97.5887,48453
8322,239,11725 N FM 620,TX,78750,30.4573,-97.8228,48491
8322,239,11725 N FM 620,TX,78750,30.4573,-97.8228,48453
7162,1675,1003 RICHMOND AVE,TX,77006,29.7338,-95.3915,48201
6240,1965,3939 BELLAIRE BLVD,TX,77025,29.7053,-95.4397,48201
7753,648,5402 WESTHEIMER RD STE K,TX,77056,29.7397,-95.4712,48201
7151,410,8000 N SAM HOUSTON PKWY E,TX,77396,29.9377,-95.2696,48201
5807,642,9522 BROADWAY ST,TX,77584,29.5558,-95.368,48039
5807,642,9522 BROADWAY ST,TX,77584,29.5558,-95.368,48157
1753,636,15010 MEMORIAL DR,TX,77079,29.7788,-95.6188,48201
5877,643,2900 BROADWAY ST,TX,77581,29.5558,-95.2647,48039
5877,643,2900 BROADWAY ST,TX,77581,29.5558,-95.2647,48167
5877,643,2900 BROADWAY ST,TX,77581,29.5558,-95.2647,48201
3699,638,3505 CENTER ST,TX,77536,29.6797,-95.122,48201
8445,380,6220 SIENNA PKWY,TX,77459,29.5375,-95.5343,48157
7154,406,5603 FM 1960 RD W,TX,77069,29.9787,-95.5137,48201
19,1907,3850 FM 2920 RD,TX,77388,30.0712,-95.4772,48201
8335,417,8754 SPRING CYPRESS RD,TX,77379,30.0331,-95.5563,48201
5977,403,24802 ALDINE WESTFIELD RD,TX,77373,30.0656,-95.4041,48201
4397,639,12550 LOUETTA RD,TX,77429,29.997,-95.6135,48201
7108,404,25110 GROGANS MILL RD,TX,77380,30.128,-95.455,48339
6746,14190,1514 N ALEXANDER,TX,77520,29.7392,-94.9533,48201
7286,1760,2469 BAY AREA BLVD,TX,77058,29.5728,-95.1099,48201
7522,14396,4420 KINGWOOD DR.,TX,77339,30.0494,-95.1847,48339
7522,14396,4420 KINGWOOD DR.,TX,77339,30.0494,-95.1847,48201
3190,2081,9101 HWY 6 NORTH,TX,77095,29.9102,-95.6294,48201
3702,385,3103 N FRY RD,TX,77449,29.8153,-95.7212,48201
5907,644,16515 LEXINGTON BLVD,TX,77479,29.5881,-95.6228,48157
7435,1456,23865 FM 1314 RD,TX,77365,30.1052,-95.2503,48201
7435,1456,23865 FM 1314 RD,TX,77365,30.1052,-95.2503,48339
7821,1967,5002 W MAIN ST,TX,77573,29.4903,-95.1538,48167
7465,1738,2242 REPSDORPH RD,TX,77586,29.5763,-95.0278,48201
1339,1433,26265 NORTHWEST FWY,TX,77429,29.9731,-95.7008,48201
285,1829,24048 KUYKENDAHL RD,TX,77375,30.1114,-95.5526,48201
6747,379,602 W GRAND PKWY S,TX,77494,29.7716,-95.7784,48473
6747,379,602 W GRAND PKWY S,TX,77494,29.7716,-95.7784,48157
6747,379,602 W GRAND PKWY S,TX,77494,29.7716,-95.7784,48201
3701,389,1410 CRABB RIVER RD,TX,77469,29.5529,-95.6941,48157
10140,1719,3705 FM 1488 ROAD,TX,77384,30.2273,-95.5216,48339
10906,2282,22125 CUMBERLAND RIDGE DR.,TX,77433,30.0146,-95.768,48201
7220,1903,1627 WILDCAT DR,TX,78374,27.8872,-97.3197,48409
5857,1317,7603 CULEBRA RD,TX,78251,29.4598,-98.6384,48029
7000,1014,5301 ALAMO PKWY,TX,78253,29.4851,-98.7345,48029
7000,1014,5301 ALAMO PKWY,TX,78253,29.4851,-98.7345,48325
7403,14390,103 S.W. MILITARY DR.,TX,78221,29.3573,-98.4919,48029
1057,1039,9140 GUILBEAU RD,TX,78250,29.5186,-98.6631,48029
8990,822,12980 BANDERA RD,TX,78023,29.5643,-98.686,48019
8990,822,12980 BANDERA RD,TX,78023,29.5643,-98.686,48325
8990,822,12980 BANDERA RD,TX,78023,29.5643,-98.686,48029
7306,1737,6915 WEST AVE,TX,78213,29.5329,-98.5234,48029
5872,1578,22135 IH 10 W,TX,78257,29.6478,-98.6234,48029
3551,1735,23530 WILDERNESS OAK,TX,78258,29.6602,-98.4995,48029
2263,1435,22202 BULVERDE RD,TX,78261,29.6482,-98.4245,48029
3894,1736,120 E SONTERRA BLVD,TX,78258,29.6158,-98.493,48029
7816,1915,2693 FM 3009,TX,78154,29.5806,-98.265,48029
7816,1915,2693 FM 3009,TX,78154,29.5806,-98.265,48091
7816,1915,2693 FM 3009,TX,78154,29.5806,-98.265,48187
2580,2001,"7442 S STAPLES ST, Staples & Yorktown",TX,78413,27.6668,-97.3949,48355
4715,14365,5315 BRIARWOOD AVE.,TX,79707,32.0258,-102.1621,48329
4715,14365,5315 BRIARWOOD AVE.,TX,79707,32.0258,-102.1621,48135
4356,14338,301 ANDREWS HIGHWAY,TX,79701,31.9956,-102.101,48329
5647,14233,4101 EAST 42ND ST.,TX,79762,31.8925,-102.3417,48135
10232,14145,5305 SOUTH 1900 WEST,UT,84067,41.1668,-112.0267,49057
10234,14139,4240 HARRISON BLVD.,UT,84403,41.186,-111.9487,49057
7116,14148,1855 W. THUNDERBIRD RD.,AZ,85023,33.6104,-112.0991,4013
3264,192,3210 E UNION HILLS DR,AZ,85050,33.6557,-112.0128,4013
17,185,18591 N 59TH AVE,AZ,85308,33.6538,-112.1855,4013
10150,1939,28635 N NORTH VALLEY PKWY,AZ,85085,33.7418,-112.1065,4013
69,1277,8332 W THUNDERBIRD RD,AZ,85381,33.6106,-112.2383,4013
7852,191,28138 N TATUM BLVD,AZ,85331,33.7405,-111.9788,4013
8366,1938,1610 E CAMELBACK RD,AZ,85016,33.5096,-112.047,4013
11478,7926,3502 WEST CAMELBACK RD,AZ,85019,33.5098,-112.1345,4013
9202,1557,4742 E INDIAN SCHOOL RD,AZ,85018,33.4959,-111.9786,4013
5892,1937,5050 W BASELINE RD,AZ,85339,33.3784,-112.1673,4013
10928,2293,909 EAST APACHE BLVD,AZ,85281,33.4144,-111.9256,4013
33,1770,1750 E BROADWAY RD,AZ,85282,33.4081,-111.9098,4013
7263,1196,10707 W CAMELBACK RD,AZ,85037,33.5076,-112.2907,4013
9290,830,4430 E RAY RD,AZ,85044,33.321,-111.9877,4013
9210,186,10653 N SCOTTSDALE RD,AZ,85254,33.5832,-111.9243,4013
10529,2103,7111 E. BELL ROAD,AZ,85254,33.6381,-111.9273,4013
9252,828,14672 N FRANK LLOYD WRIGHT BLVD,AZ,85260,33.6192,-111.8772,4013
3749,188,2840 N DYSART RD,AZ,85395,33.4782,-112.3418,4013
3965,189,5975 W CHANDLER BLVD,AZ,85226,33.3047,-111.9449,4013
5038,1532,2010 S DOBSON RD,AZ,85286,33.2755,-111.8771,4013
1720,1994,21201 E OCOTILLO RD,AZ,85142,33.248,-111.6255,4021
1720,1994,21201 E OCOTILLO RD,AZ,85142,33.248,-111.6255,4013
7075,1396,2995 E CHANDLER HEIGHTS RD,AZ,85249,33.2331,-111.7902,4013
5891,823,3170 S HIGLEY RD,AZ,85295,33.2931,-111.722,4013
5814,1395,9950 E GUADALUPE RD,AZ,85212,33.3651,-111.6196,4013
5814,1395,9950 E GUADALUPE RD,AZ,85212,33.3651,-111.6196,4021
3268,187,765 S LINDSAY RD,AZ,85296,33.3364,-111.7722,4013
4795,190,6015 E BROWN RD,AZ,85205,33.4368,-111.701,4013
5026,1695,1212 S GREENFIELD RD,AZ,85206,33.3931,-111.7373,4013
10006,1999,10650 N ORACLE RD,AZ,85737,32.4,-110.9546,4019
9277,925,6895 E SUNRISE DR,AZ,85750,32.3095,-110.845,4019
9273,381,3785 W INA RD,AZ,85741,32.337,-111.0462,4019
7841,923,4365 N ORACLE RD,AZ,85705,32.2859,-110.9789,4019
7876,384,3832 E SPEEDWAY BLVD,AZ,85716,32.2356,-110.9114,4019
9374,926,1900 W VALENCIA RD,AZ,85746,32.1345,-111.0071,4019
9302,386,8920 E TANQUE VERDE RD,AZ,85749,32.2574,-110.8018,4019
5477,1536,15474 W GREENWAY RD,AZ,85374,33.6247,-112.3931,4013
7855,383,2601 S HOUGHTON RD,AZ,85730,32.1911,-110.7718,4019
5286,690,21 W HORIZON RIDGE PKWY,NV,89012,36.011,-114.9933,32003
8795,693,2662 W HORIZON RIDGE PKWY,NV,89052,36.0003,-115.1046,32003
2928,182,1825 E WARM SPRINGS RD,NV,89119,36.0569,-115.1271,32003
8784,1372,8116 LAS VEGAS BLVD S,NV,89123,36.0419,-115.1715,32003
10348,2236,3645 LAS VEGAS BLVD S,NV,89109,36.1134,-115.1724,32003
8790,14234,3550 W. SAHARA AVE,NV,89102,36.1459,-115.189,32003
7552,1940,"1001 NEW MEXICO HWY 528, SE",NM,87124,35.2407,-106.6569,35001
7552,1940,"1001 NEW MEXICO HWY 528, SE",NM,87124,35.2407,-106.6569,35043
8918,1942,4340 SAN MATEO BLVD NE,NM,87110,35.1304,-106.5856,35001
8915,1941,9640 MENAUL BLVD NE,NM,87112,35.1082,-106.5336,35001
7242,1993,4201 MONTANO RD NW,NM,87120,35.1504,-106.6866,35001
2955,1886,3290 S FORT APACHE RD,NV,89117,36.1306,-115.2964,32003
5942,691,7285 S DURANGO DR,NV,89113,36.0561,-115.2799,32003
2989,180,4755 W ANN RD,NV,89031,36.2609,-115.2064,32003
9586,1944,55 DAMONTE RANCH PKWY,NV,89521,39.4196,-119.7562,32029
9586,1944,55 DAMONTE RANCH PKWY,NV,89521,39.4196,-119.7562,32031
9841,1945,1695 ROBB DR,NV,89523,39.529,-119.8828,32031
8793,14395,"299 E PLUMB LN, #170",NV,89502,39.5068,-119.8015,32031
8792,1943,680 N MCCARRAN BLVD,NV,89431,39.5408,-119.7319,32031
10614,14278,812 S GRAND AVE,CA,90017,34.0456,-118.2579,6037
8867,710,7915 FLORENCE AVE,CA,90240,33.9551,-118.1306,6037
9496,714,2900 N SEPULVEDA BLVD,CA,90266,33.8968,-118.3943,6037
9652,1793,8491 SANTA MONICA BLVD,CA,90069,34.0902,-118.376,6037
8871,711,13171 MINDANAO WAY,CA,90292,33.9844,-118.4388,6037
8876,2346,233 EAST WILLOW STREET,CA,90806,33.8047,-118.191,6037
8852,709,4235 PACIFIC COAST HWY,CA,90505,33.8089,-118.3583,6037
9576,715,10889 WELLWORTH AVE,CA,90024,34.0573,-118.4425,6037
9795,742,511 N HOLLYWOOD WAY,CA,91505,34.1598,-118.3435,6037
9647,722,2037 VERDUGO BLVD,CA,91020,34.2057,-118.2211,6037
9608,1872,2505 SANTA MONICA BLVD,CA,90404,34.0335,-118.4755,6037
9721,736,1401 S BALDWIN AVE,CA,91007,34.1235,-118.0565,6037
9489,14147,13303 EAST SOUTH STREET,CA,90703,33.86,-118.0485,6059
9489,14147,13303 EAST SOUTH STREET,CA,90703,33.86,-118.0485,6037
9707,733,14735 VENTURA BLVD,CA,91403,34.1525,-118.4538,6037
8861,771,8850 VALLEY VIEW ST,CA,90620,33.834,-118.0277,6059
9615,719,19353 VICTORY BLVD,CA,91335,34.1882,-118.5554,6037
9715,1768,2791 AGOURA RD,CA,91361,34.1516,-118.825,6037
9715,1768,2791 AGOURA RD,CA,91361,34.1516,-118.825,6111
9631,1343,2825 COCHRAN ST.,CA,93065,34.2809,-118.7411,6111
8843,768,921 PACIFIC COAST HWY,CA,90740,33.7447,-118.1015,6059
10225,2292,1803 SOUTH HARBOR BLVD,CA,92802,33.8028,-117.9158,6059
9492,783,18080 IMPERIAL HWY,CA,92886,33.8927,-117.8197,6059
9851,14247,130 N GRAND AVE,CA,91741,34.1368,-117.8705,6037
8850,770,19121 BEACH BLVD,CA,92648,33.6851,-117.9894,6059
9484,781,1150 BAKER ST,CA,92626,33.6805,-117.9056,6059
8895,712,775 E FOOTHILL BLVD,CA,91767,34.1086,-117.7379,6037
9723,2033,11428 KENYON WAY,CA,91701,34.1356,-117.5557,6071
5958,2031,14220 SCHLEISMAN RD,CA,92880,33.9601,-117.5938,6071
5958,2031,14220 SCHLEISMAN RD,CA,92880,33.9601,-117.5938,6065
9803,796,491 E ALESSANDRO BLVD,CA,92508,33.9159,-117.323,6065
9145,2101,9730 MISSION GORGE RD.,CA,92071,32.8398,-116.9849,6073
9173,896,2760 FLETCHER PKWY,CA,92020,32.8008,-117.0033,6073
9113,1980,645 E PALOMAR ST,CA,91911,32.6157,-117.0258,6073
9105,889,12358 POWAY RD,CA,92064,32.9529,-117.0635,6073
9963,1775,5644 MISSION CENTER RD,CA,92108,32.7746,-117.1569,6073
9111,892,16773 BERNARDO CENTER DR,CA,92128,33.0184,-117.0733,6073
9177,1849,8260 MIRA MESA BLVD,CA,92126,32.9141,-117.146,6073
9165,894,3327 ROSECRANS ST,CA,92110,32.7471,-117.2059,6073
9175,897,4829 CLAIREMONT DR,CA,92117,32.8315,-117.2048,6073
9538,1892,1792 GARNET AVE,CA,92109,32.801,-117.2376,6073
9103,888,318 W EL NORTE PKWY,CA,92026,33.1422,-117.0939,6073
9479,903,2510 EL CAMINO REAL,CA,92008,33.1798,-117.3247,6073
9528,904,7740 RANCHO SANTA FE RD,CA,92009,33.0806,-117.2369,6073
9606,1659,29610 RANCHO CALIFORNIA RD,CA,92591,33.5058,-117.1473,6065
8896,779,33205 TEMECULA PARKWAY,CA,92592,33.4855,-117.0787,6065
9187,899,683 LOMAS SANTA FE DR,CA,92075,32.9945,-117.2596,6073
9195,901,8831 VILLA LA JOLLA DRIVE,CA,92037,32.8693,-117.2307,6073
8882,776,638 CAMINO DE LOS MARES,CA,92673,33.4578,-117.6526,6059
9485,782,25272 MARGUERITE PKWY,CA,92692,33.5952,-117.657,6059
9497,784,14330 CULVER DR,CA,92604,33.7056,-117.7844,6059
8872,772,26891 ALISO CREEK RD,CA,92656,33.5722,-117.7255,6059
9865,14223,7096 N WEST AVE,CA,93711,36.8387,-119.8255,6019
9342,14152,16995 WALNUT GROVE DR.,CA,95037,37.1291,-121.6384,6085
9808,14155,470 BLOSSOM HILL RD,CA,95123,37.2505,-121.8333,6085
9805,1797,1720 S BASCOM AVE,CA,95008,37.2924,-121.9303,6085
9894,1864,10455 S DE ANZA BLVD,CA,95014,37.3165,-122.0339,6085
9793,1795,2700 HOMESTEAD RD,CA,95051,37.3383,-121.9741,6085
9812,1792,2514 BERRYESSA RD,CA,95132,37.387,-121.8586,6085
9700,1791,576 E EL CAMINO REAL,CA,94087,37.3618,-122.0271,6085
9879,1807,987 E HILLSDALE BLVD,CA,94404,37.5577,-122.2746,6081
9811,1776,1871 EL CAMINO REAL,CA,94010,37.5954,-122.3863,6081
9807,14141,10 BAYHILL SHOPPING CTR,CA,94066,37.6268,-122.4262,6081
5131,2291,1900 19th AVENUE,CA,94116,37.7523,-122.4756,6075
9941,14161,1451 SHATTUCK AVE.,CA,94709,37.8811,-122.269,6001
9545,14326,1123 S CALIFORNIA BLVD,CA,94596,37.8964,-122.0647,6013
9161,1809,45 N MILPITAS BLVD,CA,95035,37.4337,-121.9018,6085
9161,1809,45 N MILPITAS BLVD,CA,95035,37.4337,-121.9018,6001
9322,2048,2085 FAIR OAKS BLVD,CA,95825,38.5751,-121.416,6067
9823,1901,1350 FLORIN RD,CA,95822,38.4952,-121.5053,6067
4151,14254,2050 CLUB CENTER DR,CA,95835,38.6703,-121.5063,6067
1825,1902,5040 LAGUNA BLVD,CA,95758,38.4219,-121.4467,6067
5091,14248,"1771 PLEASANT GROVE BLVD., STE #100",CA,95747,38.7658,-121.3576,6061
9815,1927,738 BANCROFT RD,CA,94598,37.9294,-122.0401,6013
9251,14134,3999 SANTA RITA ROAD,CA,94588,37.697,-121.8758,6001
9251,14134,3999 SANTA RITA ROAD,CA,94588,37.697,-121.8758,6013
9813,1786,98-1005 MOANALUA RD,HI,96701,21.3831,-157.9397,15003
9953,1763,45-480 KANEOHE BAY DR,HI,96744,21.4011,-157.7975,15003
9300,2041,925 CALIFORNIA AVE,HI,96786,21.4967,-158.0249,15003
9954,1802,2470 S KING ST,HI,96826,21.2932,-157.8241,15003
9317,1804,590 FARRINGTON HWY UNIT 300,HI,96707,21.3399,-158.078,15003
9220,1801,4211 WAIALAE AVE,HI,96816,21.2765,-157.7863,15003
9825,1822,609 KAILUA RD,HI,96734,21.3935,-157.7421,15003
9185,1805,377 KEAHOLE ST,HI,96825,21.2844,-157.7077,15003
10659,14146,33520 21ST AVE. SW,WA,98023,47.3013,-122.3602,53053
10659,14146,33520 21ST AVE. SW,WA,98023,47.3013,-122.3602,53033
10285,14160,10712 SE CARR ROAD,WA,98055,47.4456,-122.1977,53033
10331,14138,"531 QUEEN ANNE AVENUE, NORTH",WA,98109,47.6244,-122.357,53033
10473,14154,18820 STATE HWY 305 NE,WA,98370,47.7339,-122.636,53035
10450,14162,19507 HIGHWAY 99,WA,98036,47.822,-122.314,53061
10450,14162,19507 HIGHWAY 99,WA,98036,47.822,-122.314,53033
10747,14132,11918 AIRPORT RD.,WA,98204,47.8894,-122.2592,53061
